<?xml version="1.0" encoding="UTF-8"?>
<gpx version="1.1" creator="kkumgil draft (OSM foot routing, routing.openstreetmap.de)" xmlns="http://www.topografix.com/GPX/1/1">
<metadata><name>초안: 1구간 끝(9/11) → 2구간 시작(9/15) — 컴퓨터 경로, 현장 확인 전</name></metadata>
<trk><name>gap draft</name><trkseg>
<trkpt lat="37.502141" lon="126.533714"/>
<trkpt lat="37.502168" lon="126.533744"/>
<trkpt lat="37.502190" lon="126.533766"/>
<trkpt lat="37.502218" lon="126.533795"/>
<trkpt lat="37.502291" lon="126.533867"/>
<trkpt lat="37.502308" lon="126.533885"/>
<trkpt lat="37.502166" lon="126.534163"/>
<trkpt lat="37.501690" lon="126.535195"/>
<trkpt lat="37.501312" lon="126.536260"/>
<trkpt lat="37.500927" lon="126.537535"/>
<trkpt lat="37.500918" lon="126.537565"/>
<trkpt lat="37.500922" lon="126.537644"/>
<trkpt lat="37.500935" lon="126.537721"/>
<trkpt lat="37.500972" lon="126.537790"/>
<trkpt lat="37.501022" lon="126.537837"/>
<trkpt lat="37.501105" lon="126.537908"/>
<trkpt lat="37.501225" lon="126.537956"/>
<trkpt lat="37.501146" lon="126.538028"/>
<trkpt lat="37.501088" lon="126.538072"/>
<trkpt lat="37.501032" lon="126.538112"/>
<trkpt lat="37.500982" lon="126.538186"/>
<trkpt lat="37.500932" lon="126.538312"/>
<trkpt lat="37.500876" lon="126.538475"/>
<trkpt lat="37.500810" lon="126.538662"/>
<trkpt lat="37.500767" lon="126.538830"/>
<trkpt lat="37.500738" lon="126.538950"/>
<trkpt lat="37.500691" lon="126.539112"/>
<trkpt lat="37.500648" lon="126.539237"/>
<trkpt lat="37.500599" lon="126.539365"/>
<trkpt lat="37.500558" lon="126.539500"/>
<trkpt lat="37.500492" lon="126.539699"/>
<trkpt lat="37.500421" lon="126.539922"/>
<trkpt lat="37.500368" lon="126.540095"/>
<trkpt lat="37.500302" lon="126.540235"/>
<trkpt lat="37.500272" lon="126.540357"/>
<trkpt lat="37.500221" lon="126.540495"/>
<trkpt lat="37.500172" lon="126.540630"/>
<trkpt lat="37.500081" lon="126.540868"/>
<trkpt lat="37.500034" lon="126.541006"/>
<trkpt lat="37.499979" lon="126.541155"/>
<trkpt lat="37.499916" lon="126.541368"/>
<trkpt lat="37.499857" lon="126.541569"/>
<trkpt lat="37.499799" lon="126.541739"/>
<trkpt lat="37.499710" lon="126.542041"/>
<trkpt lat="37.499679" lon="126.542124"/>
<trkpt lat="37.499632" lon="126.542267"/>
<trkpt lat="37.499587" lon="126.542431"/>
<trkpt lat="37.499523" lon="126.542631"/>
<trkpt lat="37.499464" lon="126.542809"/>
<trkpt lat="37.499452" lon="126.542843"/>
<trkpt lat="37.499442" lon="126.542874"/>
<trkpt lat="37.499407" lon="126.542957"/>
<trkpt lat="37.499358" lon="126.543090"/>
<trkpt lat="37.499324" lon="126.543159"/>
<trkpt lat="37.499268" lon="126.543198"/>
<trkpt lat="37.499195" lon="126.543207"/>
<trkpt lat="37.499036" lon="126.543585"/>
<trkpt lat="37.498644" lon="126.544588"/>
<trkpt lat="37.498417" lon="126.545078"/>
<trkpt lat="37.498216" lon="126.545512"/>
<trkpt lat="37.498317" lon="126.545583"/>
<trkpt lat="37.498450" lon="126.545673"/>
<trkpt lat="37.498558" lon="126.545732"/>
<trkpt lat="37.498685" lon="126.545789"/>
<trkpt lat="37.498781" lon="126.545807"/>
<trkpt lat="37.498830" lon="126.545804"/>
<trkpt lat="37.498823" lon="126.545960"/>
<trkpt lat="37.498807" lon="126.546082"/>
<trkpt lat="37.498782" lon="126.546181"/>
<trkpt lat="37.498782" lon="126.546265"/>
<trkpt lat="37.498802" lon="126.546397"/>
<trkpt lat="37.498811" lon="126.546481"/>
<trkpt lat="37.498816" lon="126.546580"/>
<trkpt lat="37.498841" lon="126.546719"/>
<trkpt lat="37.498852" lon="126.546807"/>
<trkpt lat="37.498890" lon="126.546840"/>
<trkpt lat="37.498976" lon="126.546872"/>
<trkpt lat="37.499028" lon="126.546919"/>
<trkpt lat="37.499075" lon="126.547006"/>
<trkpt lat="37.499118" lon="126.547103"/>
<trkpt lat="37.499148" lon="126.547156"/>
<trkpt lat="37.499210" lon="126.547309"/>
<trkpt lat="37.499245" lon="126.547422"/>
<trkpt lat="37.499262" lon="126.547479"/>
<trkpt lat="37.499284" lon="126.547546"/>
<trkpt lat="37.499319" lon="126.547649"/>
<trkpt lat="37.499377" lon="126.547835"/>
<trkpt lat="37.499448" lon="126.548026"/>
<trkpt lat="37.499513" lon="126.548222"/>
<trkpt lat="37.499535" lon="126.548280"/>
<trkpt lat="37.499575" lon="126.548387"/>
<trkpt lat="37.499623" lon="126.548536"/>
<trkpt lat="37.499688" lon="126.548741"/>
<trkpt lat="37.499785" lon="126.548925"/>
<trkpt lat="37.499879" lon="126.549093"/>
<trkpt lat="37.499920" lon="126.549154"/>
<trkpt lat="37.500018" lon="126.549266"/>
<trkpt lat="37.500118" lon="126.549386"/>
<trkpt lat="37.500186" lon="126.549466"/>
<trkpt lat="37.500231" lon="126.549548"/>
<trkpt lat="37.500268" lon="126.549651"/>
<trkpt lat="37.500310" lon="126.549701"/>
<trkpt lat="37.500343" lon="126.549717"/>
<trkpt lat="37.500337" lon="126.549834"/>
<trkpt lat="37.500340" lon="126.550020"/>
<trkpt lat="37.500353" lon="126.550201"/>
<trkpt lat="37.500413" lon="126.550657"/>
<trkpt lat="37.500454" lon="126.550881"/>
<trkpt lat="37.500491" lon="126.551110"/>
<trkpt lat="37.500515" lon="126.552309"/>
<trkpt lat="37.500526" lon="126.552474"/>
<trkpt lat="37.500544" lon="126.552635"/>
<trkpt lat="37.500606" lon="126.553063"/>
<trkpt lat="37.500617" lon="126.553176"/>
<trkpt lat="37.500617" lon="126.553293"/>
<trkpt lat="37.500564" lon="126.553658"/>
<trkpt lat="37.500452" lon="126.554319"/>
<trkpt lat="37.500375" lon="126.554588"/>
<trkpt lat="37.500314" lon="126.554743"/>
<trkpt lat="37.500154" lon="126.554984"/>
<trkpt lat="37.499969" lon="126.555148"/>
<trkpt lat="37.499889" lon="126.555214"/>
<trkpt lat="37.499802" lon="126.555258"/>
<trkpt lat="37.499801" lon="126.555297"/>
<trkpt lat="37.499786" lon="126.555333"/>
<trkpt lat="37.499759" lon="126.555357"/>
<trkpt lat="37.499729" lon="126.555364"/>
<trkpt lat="37.499707" lon="126.555359"/>
<trkpt lat="37.499686" lon="126.555343"/>
<trkpt lat="37.499631" lon="126.555403"/>
<trkpt lat="37.499273" lon="126.555983"/>
<trkpt lat="37.498826" lon="126.556937"/>
<trkpt lat="37.498671" lon="126.557337"/>
<trkpt lat="37.498534" lon="126.558188"/>
<trkpt lat="37.498433" lon="126.558523"/>
<trkpt lat="37.498352" lon="126.558736"/>
<trkpt lat="37.498322" lon="126.558814"/>
<trkpt lat="37.498143" lon="126.559107"/>
<trkpt lat="37.498043" lon="126.559269"/>
<trkpt lat="37.497654" lon="126.558906"/>
<trkpt lat="37.496653" lon="126.557837"/>
</trkseg></trk>
</gpx>