<?xml version="1.0" encoding="UTF-8"?>
<gpx version="1.1" creator="kkumgil-brouter" xmlns="http://www.topografix.com/GPX/1/1">
  <metadata><name>하늘도시 중심상가~해안길~카라반캠핑장</name><desc>씨사이드파크를 «경유지로 강제하지 않는다». 강제하면 공원까지 들어갔다 되돌아 나오는 390m 짜리 왕복이 생기는데, 실제로는 해안길을 따라 지나갈 뿐이다(공원과 184m 거리). 사용자가 보낸 카카오맵 도보 길찾기(kko.to/ew_IDEiLlp)를 보고 뽑음.</desc></metadata>
  <trk><name>day1_seg4_seaside</name><trkseg>
    <trkpt lat="37.487200" lon="126.560389"></trkpt>
    <trkpt lat="37.486838" lon="126.560007"></trkpt>
    <trkpt lat="37.486269" lon="126.559404"></trkpt>
    <trkpt lat="37.485787" lon="126.560115"></trkpt>
    <trkpt lat="37.485362" lon="126.559683"></trkpt>
    <trkpt lat="37.485190" lon="126.559516"></trkpt>
    <trkpt lat="37.485103" lon="126.559647"></trkpt>
    <trkpt lat="37.484385" lon="126.560729"></trkpt>
    <trkpt lat="37.484341" lon="126.560759"></trkpt>
    <trkpt lat="37.484313" lon="126.560756"></trkpt>
    <trkpt lat="37.484283" lon="126.560752"></trkpt>
    <trkpt lat="37.484180" lon="126.560969"></trkpt>
    <trkpt lat="37.484059" lon="126.561225"></trkpt>
    <trkpt lat="37.484066" lon="126.561272"></trkpt>
    <trkpt lat="37.484065" lon="126.561346"></trkpt>
    <trkpt lat="37.481650" lon="126.564960"></trkpt>
    <trkpt lat="37.481550" lon="126.565129"></trkpt>
    <trkpt lat="37.481425" lon="126.565336"></trkpt>
    <trkpt lat="37.481434" lon="126.565343"></trkpt>
    <trkpt lat="37.481480" lon="126.565399"></trkpt>
    <trkpt lat="37.481514" lon="126.565437"></trkpt>
    <trkpt lat="37.481324" lon="126.565595"></trkpt>
    <trkpt lat="37.481205" lon="126.565663"></trkpt>
    <trkpt lat="37.481067" lon="126.565713"></trkpt>
    <trkpt lat="37.480968" lon="126.565734"></trkpt>
    <trkpt lat="37.480873" lon="126.565745"></trkpt>
    <trkpt lat="37.480688" lon="126.565705"></trkpt>
    <trkpt lat="37.480569" lon="126.565646"></trkpt>
    <trkpt lat="37.480425" lon="126.565562"></trkpt>
    <trkpt lat="37.480242" lon="126.565431"></trkpt>
    <trkpt lat="37.480089" lon="126.565290"></trkpt>
    <trkpt lat="37.479984" lon="126.565098"></trkpt>
    <trkpt lat="37.479703" lon="126.564286"></trkpt>
    <trkpt lat="37.479525" lon="126.563631"></trkpt>
    <trkpt lat="37.478676" lon="126.559777"></trkpt>
    <trkpt lat="37.478247" lon="126.557915"></trkpt>
  </trkseg></trk>
</gpx>