<?xml version="1.0" encoding="UTF-8"?>
<gpx version="1.1" creator="kkumgil" xmlns="http://www.topografix.com/GPX/1/1" xmlns:xsi="http://www.w3.org/2001/XMLSchema-instance" xsi:schemaLocation="http://www.topografix.com/GPX/1/1 http://www.topografix.com/GPX/1/1/gpx.xsd http://www.garmin.com/xmlschemas/GpxExtensions/v3 http://www.garmin.com/xmlschemas/GpxExtensionsv3.xsd http://www.garmin.com/xmlschemas/TrackPointExtension/v1 http://www.garmin.com/xmlschemas/TrackPointExtensionv1.xsd http://www.garmin.com/xmlschemas/PowerExtension/v1 http://www.garmin.com/xmlschemas/PowerExtensionv1.xsd http://www.topografix.com/GPX/gpx_style/0/2 http://www.topografix.com/GPX/gpx_style/0/2/gpx_style.xsd" xmlns:gpxtpx="http://www.garmin.com/xmlschemas/TrackPointExtension/v1" xmlns:gpxx="http://www.garmin.com/xmlschemas/GpxExtensions/v3" xmlns:gpxpx="http://www.garmin.com/xmlschemas/PowerExtension/v1" xmlns:gpx_style="http://www.topografix.com/GPX/gpx_style/0/2">
  <metadata>
    <name>꿈길 걷기 1일차</name>
    <author>
      <name>gpx.studio</name>
      <link href="https://gpx.studio"/>
    </author>
    <time>2026-09-29T07:35:32.000Z</time>
  </metadata>
  <wpt lat="37.48782" lon="126.500805">
    <name>1. 갈림길</name>
    <desc>0.38km 지점</desc>
  </wpt>
  <wpt lat="37.488566" lon="126.501524">
    <name>2. 갈림길</name>
    <desc>0.48km 지점</desc>
  </wpt>
  <wpt lat="37.488905" lon="126.500641">
    <name>3. 화장실</name>
    <desc>0.61km 지점</desc>
  </wpt>
  <wpt lat="37.488918" lon="126.500758">
    <name>4. 갈림길</name>
    <desc>0.62km 지점</desc>
  </wpt>
  <wpt lat="37.491094" lon="126.502487">
    <name>5. 갈림길</name>
    <desc>0.94km 지점</desc>
  </wpt>
  <wpt lat="37.491367" lon="126.502571">
    <name>6. 갈림길</name>
    <desc>0.96km 지점</desc>
  </wpt>
  <wpt lat="37.492911" lon="126.502681">
    <name>7. 갈림길</name>
    <desc>1.15km 지점</desc>
  </wpt>
  <wpt lat="37.493971" lon="126.503315">
    <name>8. 갈림길</name>
    <desc>1.28km 지점</desc>
  </wpt>
  <wpt lat="37.494779" lon="126.503854">
    <name>9. 갈림길</name>
    <desc>1.40km 지점</desc>
  </wpt>
  <wpt lat="37.495179" lon="126.505231">
    <name>10. 갈림길</name>
    <desc>1.53km 지점</desc>
  </wpt>
  <wpt lat="37.495484" lon="126.505722">
    <name>11. 갈림길</name>
    <desc>1.59km 지점</desc>
  </wpt>
  <wpt lat="37.495682" lon="126.506329">
    <name>12. 갈림길</name>
    <desc>1.65km 지점</desc>
  </wpt>
  <wpt lat="37.498602" lon="126.508446">
    <name>13. 갈림길</name>
    <desc>2.04km 지점</desc>
  </wpt>
  <wpt lat="37.494624" lon="126.514609">
    <name>14. 갈림길</name>
    <desc>2.84km 지점</desc>
  </wpt>
  <wpt lat="37.49335" lon="126.515813">
    <name>15. 명소</name>
    <desc>3.03km 지점</desc>
  </wpt>
  <wpt lat="37.493487" lon="126.516193">
    <name>16. 갈림길</name>
    <desc>3.07km 지점</desc>
  </wpt>
  <wpt lat="37.493649" lon="126.5164">
    <name>17. 휴식</name>
    <desc>3.10km 지점</desc>
  </wpt>
  <wpt lat="37.493848" lon="126.51708">
    <name>18. 명소</name>
    <desc>3.17km 지점</desc>
  </wpt>
  <wpt lat="37.49414" lon="126.517482">
    <name>19. 갈림길</name>
    <desc>3.22km 지점</desc>
  </wpt>
  <wpt lat="37.494416" lon="126.519302">
    <name>20. 갈림길</name>
    <desc>3.38km 지점</desc>
  </wpt>
  <wpt lat="37.495427" lon="126.522114">
    <name>21. 갈림길</name>
    <desc>3.66km 지점</desc>
  </wpt>
  <wpt lat="37.495756" lon="126.523414">
    <name>22. 갈림길</name>
    <desc>3.79km 지점</desc>
  </wpt>
  <wpt lat="37.496832" lon="126.524343">
    <name>23. 갈림길</name>
    <desc>3.94km 지점</desc>
  </wpt>
  <wpt lat="37.497345" lon="126.525447">
    <name>24. 갈림길</name>
    <desc>4.06km 지점</desc>
  </wpt>
  <wpt lat="37.496932" lon="126.526805">
    <name>25. 갈림길</name>
    <desc>4.19km 지점</desc>
  </wpt>
  <wpt lat="37.496598" lon="126.529996">
    <name>26. 갈림길</name>
    <desc>4.49km 지점</desc>
  </wpt>
  <wpt lat="37.496964" lon="126.528478">
    <name>27. 명소</name>
    <desc>4.66km 지점</desc>
  </wpt>
  <wpt lat="37.497064" lon="126.528729">
    <name>28. 휴식</name>
    <desc>4.70km 지점</desc>
  </wpt>
  <wpt lat="37.497227" lon="126.529699">
    <name>29. 화장실</name>
    <desc>4.79km 지점</desc>
  </wpt>
  <wpt lat="37.497348" lon="126.530453">
    <name>30. 갈림길</name>
    <desc>4.87km 지점</desc>
  </wpt>
  <wpt lat="37.499273" lon="126.532439">
    <name>31. 갈림길</name>
    <desc>5.20km 지점</desc>
  </wpt>
  <wpt lat="37.49976" lon="126.532092">
    <name>32. 주의</name>
    <desc>5.26km 지점</desc>
  </wpt>
  <wpt lat="37.502368" lon="126.532719">
    <name>33. 갈림길</name>
    <desc>5.58km 지점</desc>
  </wpt>
  <wpt lat="37.496735" lon="126.557715">
    <name>34. 화장실</name>
    <desc>8.40km 지점</desc>
  </wpt>
  <wpt lat="37.496761" lon="126.55798">
    <name>35. 갈림길</name>
    <desc>8.40km 지점</desc>
  </wpt>
  <wpt lat="37.497206" lon="126.559062">
    <name>36. 명소</name>
    <desc>8.57km 지점</desc>
  </wpt>
  <wpt lat="37.497318" lon="126.559189">
    <name>37. 갈림길</name>
    <desc>8.58km 지점</desc>
  </wpt>
  <wpt lat="37.496883" lon="126.559527">
    <name>38. 갈림길</name>
    <desc>8.64km 지점</desc>
  </wpt>
  <wpt lat="37.494617" lon="126.562427">
    <name>39. 화장실</name>
    <desc>9.04km 지점</desc>
  </wpt>
  <wpt lat="37.494693" lon="126.56253">
    <name>40. 휴식</name>
    <desc>9.05km 지점</desc>
  </wpt>
  <wpt lat="37.494008" lon="126.563358">
    <name>41. 갈림길</name>
    <desc>9.18km 지점</desc>
  </wpt>
  <wpt lat="37.494119" lon="126.563823">
    <name>42. 주의</name>
    <desc>9.26km 지점</desc>
  </wpt>
  <wpt lat="37.492553" lon="126.565921">
    <name>43. 갈림길</name>
    <desc>9.52km 지점</desc>
  </wpt>
  <wpt lat="37.487065" lon="126.560615">
    <name>44. 휴식</name>
    <desc>10.31km 지점</desc>
  </wpt>
  <trk>
    <name>꿈길 걷기 1일차</name>
    <trkseg>
      <trkpt lat="37.485196" lon="126.501936"/>
      <trkpt lat="37.485115" lon="126.50195"/>
      <trkpt lat="37.48503" lon="126.5021"/>
      <trkpt lat="37.485131" lon="126.502283"/>
      <trkpt lat="37.486819" lon="126.501355"/>
      <trkpt lat="37.487287" lon="126.501172"/>
      <trkpt lat="37.487909" lon="126.500753"/>
      <trkpt lat="37.488054" lon="126.500815"/>
      <trkpt lat="37.488299" lon="126.501296"/>
      <trkpt lat="37.488558" lon="126.501518"/>
      <trkpt lat="37.488658" lon="126.501533"/>
      <trkpt lat="37.48881" lon="126.501353"/>
      <trkpt lat="37.489005" lon="126.501358"/>
      <trkpt lat="37.489031" lon="126.501298"/>
      <trkpt lat="37.488912" lon="126.500897"/>
      <trkpt lat="37.488906" lon="126.500594"/>
      <trkpt lat="37.488917" lon="126.500715"/>
      <trkpt lat="37.489294" lon="126.500851"/>
      <trkpt lat="37.489768" lon="126.50124"/>
      <trkpt lat="37.490404" lon="126.50126"/>
      <trkpt lat="37.490644" lon="126.501499"/>
      <trkpt lat="37.490804" lon="126.501949"/>
      <trkpt lat="37.491166" lon="126.502565"/>
      <trkpt lat="37.491315" lon="126.5026"/>
      <trkpt lat="37.491585" lon="126.502503"/>
      <trkpt lat="37.492152" lon="126.502721"/>
      <trkpt lat="37.492348" lon="126.502701"/>
      <trkpt lat="37.492779" lon="126.502843"/>
      <trkpt lat="37.492915" lon="126.502679"/>
      <trkpt lat="37.493743" lon="126.503285"/>
      <trkpt lat="37.49398" lon="126.503292"/>
      <trkpt lat="37.494094" lon="126.503499"/>
      <trkpt lat="37.494226" lon="126.5036"/>
      <trkpt lat="37.49453" lon="126.503676"/>
      <trkpt lat="37.494828" lon="126.503888"/>
      <trkpt lat="37.494957" lon="126.504245"/>
      <trkpt lat="37.49505" lon="126.50491"/>
      <trkpt lat="37.495214" lon="126.50536"/>
      <trkpt lat="37.495551" lon="126.505843"/>
      <trkpt lat="37.495578" lon="126.506024"/>
      <trkpt lat="37.495693" lon="126.506227"/>
      <trkpt lat="37.495677" lon="126.506407"/>
      <trkpt lat="37.496024" lon="126.506884"/>
      <trkpt lat="37.496653" lon="126.5076"/>
      <trkpt lat="37.496943" lon="126.507748"/>
      <trkpt lat="37.497501" lon="126.508212"/>
      <trkpt lat="37.497825" lon="126.50834"/>
      <trkpt lat="37.498676" lon="126.508481"/>
      <trkpt lat="37.498749" lon="126.509012"/>
      <trkpt lat="37.498659" lon="126.509229"/>
      <trkpt lat="37.498635" lon="126.509781"/>
      <trkpt lat="37.498526" lon="126.510205"/>
      <trkpt lat="37.498025" lon="126.510708"/>
      <trkpt lat="37.497815" lon="126.510719"/>
      <trkpt lat="37.497671" lon="126.510872"/>
      <trkpt lat="37.49752" lon="126.510892"/>
      <trkpt lat="37.49689" lon="126.511412"/>
      <trkpt lat="37.496573" lon="126.511457"/>
      <trkpt lat="37.496301" lon="126.511583"/>
      <trkpt lat="37.495785" lon="126.512041"/>
      <trkpt lat="37.495343" lon="126.512277"/>
      <trkpt lat="37.495138" lon="126.512612"/>
      <trkpt lat="37.495095" lon="126.512852"/>
      <trkpt lat="37.494708" lon="126.513633"/>
      <trkpt lat="37.494833" lon="126.514329"/>
      <trkpt lat="37.494638" lon="126.514594"/>
      <trkpt lat="37.494339" lon="126.514647"/>
      <trkpt lat="37.493807" lon="126.51506"/>
      <trkpt lat="37.493528" lon="126.51556"/>
      <trkpt lat="37.49335" lon="126.515633"/>
      <trkpt lat="37.493366" lon="126.51581"/>
      <trkpt lat="37.493493" lon="126.51622"/>
      <trkpt lat="37.493699" lon="126.516458"/>
      <trkpt lat="37.493902" lon="126.517209"/>
      <trkpt lat="37.4942" lon="126.517561"/>
      <trkpt lat="37.494133" lon="126.518088"/>
      <trkpt lat="37.494341" lon="126.518509"/>
      <trkpt lat="37.494425" lon="126.519341"/>
      <trkpt lat="37.494737" lon="126.519701"/>
      <trkpt lat="37.494896" lon="126.52008"/>
      <trkpt lat="37.495057" lon="126.520749"/>
      <trkpt lat="37.49515" lon="126.521558"/>
      <trkpt lat="37.495259" lon="126.521925"/>
      <trkpt lat="37.495409" lon="126.522085"/>
      <trkpt lat="37.495556" lon="126.522391"/>
      <trkpt lat="37.495584" lon="126.522906"/>
      <trkpt lat="37.495771" lon="126.523454"/>
      <trkpt lat="37.496204" lon="126.524189"/>
      <trkpt lat="37.496874" lon="126.524361"/>
      <trkpt lat="37.496975" lon="126.524501"/>
      <trkpt lat="37.497093" lon="126.525079"/>
      <trkpt lat="37.497353" lon="126.525455"/>
      <trkpt lat="37.496912" lon="126.526709"/>
      <trkpt lat="37.496945" lon="126.526859"/>
      <trkpt lat="37.496764" lon="126.526967"/>
      <trkpt lat="37.496689" lon="126.527125"/>
      <trkpt lat="37.496479" lon="126.527962"/>
      <trkpt lat="37.496407" lon="126.529343"/>
      <trkpt lat="37.496472" lon="126.529765"/>
      <trkpt lat="37.496592" lon="126.529947"/>
      <trkpt lat="37.496625" lon="126.530118"/>
      <trkpt lat="37.496731" lon="126.530007"/>
      <trkpt lat="37.496685" lon="126.529763"/>
      <trkpt lat="37.496785" lon="126.529004"/>
      <trkpt lat="37.496963" lon="126.528477"/>
      <trkpt lat="37.497018" lon="126.528493"/>
      <trkpt lat="37.49714" lon="126.528892"/>
      <trkpt lat="37.497053" lon="126.529173"/>
      <trkpt lat="37.497164" lon="126.529585"/>
      <trkpt lat="37.49726" lon="126.529719"/>
      <trkpt lat="37.497213" lon="126.529823"/>
      <trkpt lat="37.497389" lon="126.530586"/>
      <trkpt lat="37.497446" lon="126.531136"/>
      <trkpt lat="37.497735" lon="126.53204"/>
      <trkpt lat="37.497907" lon="126.532271"/>
      <trkpt lat="37.499161" lon="126.532697"/>
      <trkpt lat="37.499246" lon="126.532637"/>
      <trkpt lat="37.499289" lon="126.532528"/>
      <trkpt lat="37.49926" lon="126.532424"/>
      <trkpt lat="37.499337" lon="126.532269"/>
      <trkpt lat="37.499657" lon="126.53209"/>
      <trkpt lat="37.499993" lon="126.532056"/>
      <trkpt lat="37.500603" lon="126.532124"/>
      <trkpt lat="37.500991" lon="126.531989"/>
      <trkpt lat="37.501241" lon="126.532016"/>
      <trkpt lat="37.501987" lon="126.532583"/>
      <trkpt lat="37.502411" lon="126.532737"/>
      <trkpt lat="37.502406" lon="126.532864"/>
      <trkpt lat="37.502034" lon="126.533755"/>
      <trkpt lat="37.502211" lon="126.533397"/>
      <trkpt lat="37.500386" lon="126.538198"/>
      <trkpt lat="37.498002" lon="126.545213"/>
      <trkpt lat="37.495527" lon="126.549325"/>
      <trkpt lat="37.495108" lon="126.550144"/>
      <trkpt lat="37.49471" lon="126.550645"/>
      <trkpt lat="37.494164" lon="126.551588"/>
      <trkpt lat="37.492753" lon="126.553714"/>
      <trkpt lat="37.494246" lon="126.555158"/>
      <trkpt lat="37.496648" lon="126.557721"/>
      <trkpt lat="37.496761" lon="126.55798"/>
      <trkpt lat="37.496768" lon="126.558363"/>
      <trkpt lat="37.496607" lon="126.558678"/>
      <trkpt lat="37.496614" lon="126.558996"/>
      <trkpt lat="37.496857" lon="126.559058"/>
      <trkpt lat="37.497146" lon="126.559024"/>
      <trkpt lat="37.497326" lon="126.559219"/>
      <trkpt lat="37.497256" lon="126.559306"/>
      <trkpt lat="37.496915" lon="126.559486"/>
      <trkpt lat="37.496726" lon="126.559767"/>
      <trkpt lat="37.495846" lon="126.560377"/>
      <trkpt lat="37.495721" lon="126.560648"/>
      <trkpt lat="37.495669" lon="126.561109"/>
      <trkpt lat="37.495534" lon="126.56114"/>
      <trkpt lat="37.495268" lon="126.561017"/>
      <trkpt lat="37.495232" lon="126.561052"/>
      <trkpt lat="37.494714" lon="126.562347"/>
      <trkpt lat="37.494626" lon="126.562424"/>
      <trkpt lat="37.494756" lon="126.562687"/>
      <trkpt lat="37.494643" lon="126.562964"/>
      <trkpt lat="37.494278" lon="126.563395"/>
      <trkpt lat="37.493898" lon="126.563348"/>
      <trkpt lat="37.493916" lon="126.563454"/>
      <trkpt lat="37.494208" lon="126.563847"/>
      <trkpt lat="37.494123" lon="126.563821"/>
      <trkpt lat="37.494058" lon="126.563914"/>
      <trkpt lat="37.493753" lon="126.564523"/>
      <trkpt lat="37.493293" lon="126.564932"/>
      <trkpt lat="37.493089" lon="126.565373"/>
      <trkpt lat="37.492726" lon="126.565794"/>
      <trkpt lat="37.492512" lon="126.565929"/>
      <trkpt lat="37.492126" lon="126.565607"/>
      <trkpt lat="37.491366" lon="126.564755"/>
      <trkpt lat="37.490778" lon="126.564272"/>
      <trkpt lat="37.49055" lon="126.563915"/>
      <trkpt lat="37.490324" lon="126.563736"/>
      <trkpt lat="37.490198" lon="126.563558"/>
      <trkpt lat="37.490027" lon="126.563409"/>
      <trkpt lat="37.489853" lon="126.563338"/>
      <trkpt lat="37.489804" lon="126.563168"/>
      <trkpt lat="37.489508" lon="126.562985"/>
      <trkpt lat="37.489413" lon="126.56276"/>
      <trkpt lat="37.488973" lon="126.562403"/>
      <trkpt lat="37.488621" lon="126.561868"/>
      <trkpt lat="37.488488" lon="126.561794"/>
      <trkpt lat="37.488272" lon="126.561541"/>
      <trkpt lat="37.488084" lon="126.561447"/>
      <trkpt lat="37.487933" lon="126.561201"/>
      <trkpt lat="37.487582" lon="126.560941"/>
      <trkpt lat="37.487361" lon="126.560671"/>
      <trkpt lat="37.487227" lon="126.560578"/>
      <trkpt lat="37.487146" lon="126.560646"/>
      <trkpt lat="37.487052" lon="126.560613"/>
      <trkpt lat="37.4872" lon="126.560389"/>
      <trkpt lat="37.486269" lon="126.559404"/>
      <trkpt lat="37.485787" lon="126.560115"/>
      <trkpt lat="37.48519" lon="126.559516"/>
      <trkpt lat="37.484385" lon="126.560729"/>
      <trkpt lat="37.484283" lon="126.560752"/>
      <trkpt lat="37.484059" lon="126.561225"/>
      <trkpt lat="37.484065" lon="126.561346"/>
      <trkpt lat="37.48165" lon="126.56496"/>
      <trkpt lat="37.481425" lon="126.565336"/>
      <trkpt lat="37.481514" lon="126.565437"/>
      <trkpt lat="37.481324" lon="126.565595"/>
      <trkpt lat="37.481067" lon="126.565713"/>
      <trkpt lat="37.480873" lon="126.565745"/>
      <trkpt lat="37.480688" lon="126.565705"/>
      <trkpt lat="37.480425" lon="126.565562"/>
      <trkpt lat="37.480425" lon="126.565562">
        <ele>6.94</ele>
      </trkpt>
      <trkpt lat="37.480242" lon="126.565431">
        <ele>6.94</ele>
      </trkpt>
      <trkpt lat="37.480089" lon="126.56529">
        <ele>6.6</ele>
      </trkpt>
      <trkpt lat="37.479984" lon="126.565098">
        <ele>6.05</ele>
      </trkpt>
      <trkpt lat="37.479703" lon="126.564286">
        <ele>6.99</ele>
      </trkpt>
      <trkpt lat="37.479525" lon="126.563631">
        <ele>5.82</ele>
      </trkpt>
      <trkpt lat="37.478676" lon="126.559777">
        <ele>6.47</ele>
      </trkpt>
      <trkpt lat="37.478217" lon="126.557776">
        <ele>6.21</ele>
      </trkpt>
      <trkpt lat="37.478186" lon="126.557634">
        <ele>6.28</ele>
      </trkpt>
      <trkpt lat="37.478676" lon="126.559777">
        <ele>6.47</ele>
      </trkpt>
      <trkpt lat="37.479525" lon="126.563631">
        <ele>5.82</ele>
      </trkpt>
      <trkpt lat="37.479703" lon="126.564286">
        <ele>6.99</ele>
      </trkpt>
      <trkpt lat="37.479984" lon="126.565098">
        <ele>6.05</ele>
      </trkpt>
      <trkpt lat="37.480089" lon="126.56529">
        <ele>6.6</ele>
      </trkpt>
      <trkpt lat="37.480242" lon="126.565431">
        <ele>6.94</ele>
      </trkpt>
      <trkpt lat="37.480425" lon="126.565562">
        <ele>6.94</ele>
      </trkpt>
      <trkpt lat="37.480688" lon="126.565705">
        <ele>6.92</ele>
      </trkpt>
      <trkpt lat="37.480873" lon="126.565745">
        <ele>6.87</ele>
      </trkpt>
      <trkpt lat="37.481067" lon="126.565713">
        <ele>6.01</ele>
      </trkpt>
      <trkpt lat="37.481205" lon="126.565663">
        <ele>6</ele>
      </trkpt>
      <trkpt lat="37.481324" lon="126.565595">
        <ele>6.87</ele>
      </trkpt>
      <trkpt lat="37.481514" lon="126.565437">
        <ele>7</ele>
      </trkpt>
      <trkpt lat="37.48148" lon="126.565399">
        <ele>7</ele>
      </trkpt>
      <trkpt lat="37.481383" lon="126.565498">
        <ele>7</ele>
      </trkpt>
      <trkpt lat="37.481288" lon="126.565561">
        <ele>6.69</ele>
      </trkpt>
      <trkpt lat="37.481058" lon="126.565657">
        <ele>6.03</ele>
      </trkpt>
      <trkpt lat="37.480873" lon="126.565685">
        <ele>6.52</ele>
      </trkpt>
      <trkpt lat="37.480699" lon="126.565657">
        <ele>6.81</ele>
      </trkpt>
      <trkpt lat="37.48062" lon="126.565624">
        <ele>7</ele>
      </trkpt>
      <trkpt lat="37.480371" lon="126.565469">
        <ele>7</ele>
      </trkpt>
      <trkpt lat="37.48014" lon="126.565298">
        <ele>6.79</ele>
      </trkpt>
      <trkpt lat="37.480032" lon="126.565131">
        <ele>6.4</ele>
      </trkpt>
      <trkpt lat="37.480011" lon="126.564966">
        <ele>6.09</ele>
      </trkpt>
      <trkpt lat="37.479899" lon="126.564792">
        <ele>6</ele>
      </trkpt>
      <trkpt lat="37.479786" lon="126.564459">
        <ele>6.85</ele>
      </trkpt>
      <trkpt lat="37.479523" lon="126.563495">
        <ele>6.15</ele>
      </trkpt>
      <trkpt lat="37.479181" lon="126.561794">
        <ele>7</ele>
      </trkpt>
      <trkpt lat="37.478513" lon="126.558962">
        <ele>6.84</ele>
      </trkpt>
      <trkpt lat="37.477117" lon="126.552723">
        <ele>7.05</ele>
      </trkpt>
      <trkpt lat="37.477152" lon="126.552687">
        <ele>7.31</ele>
      </trkpt>
      <trkpt lat="37.477186" lon="126.552653">
        <ele>7.56</ele>
      </trkpt>
      <trkpt lat="37.477338" lon="126.55235">
        <ele>7.67</ele>
      </trkpt>
      <trkpt lat="37.477411" lon="126.551971">
        <ele>9.04</ele>
      </trkpt>
      <trkpt lat="37.477435" lon="126.551925">
        <ele>9.98</ele>
      </trkpt>
      <trkpt lat="37.477544" lon="126.551872">
        <ele>13.47</ele>
      </trkpt>
      <trkpt lat="37.477636" lon="126.551878">
        <ele>15.95</ele>
      </trkpt>
      <trkpt lat="37.477691" lon="126.551848">
        <ele>17.65</ele>
      </trkpt>
      <trkpt lat="37.47769" lon="126.55178">
        <ele>18.14</ele>
      </trkpt>
      <trkpt lat="37.477651" lon="126.551726">
        <ele>17.48</ele>
      </trkpt>
      <trkpt lat="37.47756" lon="126.551516">
        <ele>17.15</ele>
      </trkpt>
      <trkpt lat="37.477563" lon="126.551454">
        <ele>18.19</ele>
      </trkpt>
      <trkpt lat="37.477616" lon="126.551301">
        <ele>22.14</ele>
      </trkpt>
      <trkpt lat="37.477627" lon="126.55113">
        <ele>25.68</ele>
      </trkpt>
      <trkpt lat="37.477646" lon="126.550838">
        <ele>31.71</ele>
      </trkpt>
      <trkpt lat="37.477652" lon="126.550752">
        <ele>33.49</ele>
      </trkpt>
      <trkpt lat="37.477668" lon="126.550715">
        <ele>34.17</ele>
      </trkpt>
      <trkpt lat="37.477692" lon="126.55071">
        <ele>34.51</ele>
      </trkpt>
      <trkpt lat="37.477805" lon="126.550441">
        <ele>38.13</ele>
      </trkpt>
      <trkpt lat="37.477843" lon="126.55035">
        <ele>39.36</ele>
      </trkpt>
      <trkpt lat="37.47812" lon="126.550056">
        <ele>41.92</ele>
      </trkpt>
      <trkpt lat="37.478303" lon="126.54991">
        <ele>46.4</ele>
      </trkpt>
      <trkpt lat="37.478377" lon="126.549811">
        <ele>48.33</ele>
      </trkpt>
      <trkpt lat="37.478482" lon="126.549558">
        <ele>51.14</ele>
      </trkpt>
      <trkpt lat="37.478558" lon="126.549413">
        <ele>52.79</ele>
      </trkpt>
      <trkpt lat="37.478633" lon="126.549147">
        <ele>54.09</ele>
      </trkpt>
      <trkpt lat="37.478782" lon="126.548333">
        <ele>55.42</ele>
      </trkpt>
      <trkpt lat="37.47895" lon="126.548148">
        <ele>57.59</ele>
      </trkpt>
      <trkpt lat="37.479013" lon="126.54812">
        <ele>58.94</ele>
      </trkpt>
      <trkpt lat="37.479049" lon="126.548055">
        <ele>58.67</ele>
      </trkpt>
      <trkpt lat="37.479151" lon="126.547978">
        <ele>59.13</ele>
      </trkpt>
      <trkpt lat="37.47919" lon="126.547871">
        <ele>57.47</ele>
      </trkpt>
      <trkpt lat="37.479364" lon="126.547805">
        <ele>58.61</ele>
      </trkpt>
      <trkpt lat="37.479551" lon="126.547768">
        <ele>60.42</ele>
      </trkpt>
      <trkpt lat="37.479717" lon="126.547699">
        <ele>60.98</ele>
      </trkpt>
      <trkpt lat="37.479838" lon="126.547703">
        <ele>62.87</ele>
      </trkpt>
      <trkpt lat="37.479874" lon="126.54767">
        <ele>62.95</ele>
      </trkpt>
      <trkpt lat="37.480118" lon="126.547445">
        <ele>63.47</ele>
      </trkpt>
      <trkpt lat="37.48016" lon="126.547368">
        <ele>63.02</ele>
      </trkpt>
      <trkpt lat="37.480216" lon="126.547314">
        <ele>62.42</ele>
      </trkpt>
      <trkpt lat="37.480422" lon="126.547194">
        <ele>60.76</ele>
      </trkpt>
      <trkpt lat="37.4805" lon="126.547129">
        <ele>59.43</ele>
      </trkpt>
      <trkpt lat="37.480576" lon="126.547006">
        <ele>57.83</ele>
      </trkpt>
      <trkpt lat="37.480755" lon="126.546937">
        <ele>57.37</ele>
      </trkpt>
      <trkpt lat="37.480818" lon="126.546846">
        <ele>56.8</ele>
      </trkpt>
      <trkpt lat="37.480962" lon="126.546777">
        <ele>55.46</ele>
      </trkpt>
      <trkpt lat="37.481076" lon="126.546657">
        <ele>54.79</ele>
      </trkpt>
      <trkpt lat="37.481118" lon="126.546639">
        <ele>54.15</ele>
      </trkpt>
      <trkpt lat="37.481365" lon="126.546723">
        <ele>47.85</ele>
      </trkpt>
      <trkpt lat="37.481831" lon="126.546881">
        <ele>27.87</ele>
      </trkpt>
      <trkpt lat="37.481861" lon="126.546891">
        <ele>26.57</ele>
      </trkpt>
      <trkpt lat="37.481906" lon="126.546742">
        <ele>26.73</ele>
      </trkpt>
      <trkpt lat="37.482007" lon="126.546502">
        <ele>27.38</ele>
      </trkpt>
      <trkpt lat="37.482328" lon="126.546109">
        <ele>22.25</ele>
      </trkpt>
      <trkpt lat="37.482465" lon="126.546063">
        <ele>20.33</ele>
      </trkpt>
      <trkpt lat="37.482604" lon="126.545903">
        <ele>19</ele>
      </trkpt>
      <trkpt lat="37.482661" lon="126.545837">
        <ele>18.45</ele>
      </trkpt>
      <trkpt lat="37.482738" lon="126.546103">
        <ele>19.43</ele>
      </trkpt>
      <trkpt lat="37.482763" lon="126.546315">
        <ele>19.58</ele>
      </trkpt>
      <trkpt lat="37.482755" lon="126.546531">
        <ele>19.65</ele>
      </trkpt>
      <trkpt lat="37.482727" lon="126.546712">
        <ele>19.88</ele>
      </trkpt>
      <trkpt lat="37.482683" lon="126.546888">
        <ele>20</ele>
      </trkpt>
      <trkpt lat="37.48263" lon="126.547012">
        <ele>20</ele>
      </trkpt>
      <trkpt lat="37.482516" lon="126.547227">
        <ele>20</ele>
      </trkpt>
      <trkpt lat="37.481926" lon="126.548251">
        <ele>21.56</ele>
      </trkpt>
      <trkpt lat="37.481864" lon="126.548396">
        <ele>21.18</ele>
      </trkpt>
      <trkpt lat="37.481812" lon="126.54858">
        <ele>20.55</ele>
      </trkpt>
      <trkpt lat="37.481792" lon="126.548697">
        <ele>20.7</ele>
      </trkpt>
      <trkpt lat="37.481784" lon="126.548927">
        <ele>20.76</ele>
      </trkpt>
      <trkpt lat="37.481815" lon="126.549171">
        <ele>20.53</ele>
      </trkpt>
      <trkpt lat="37.481897" lon="126.54936">
        <ele>20.6</ele>
      </trkpt>
      <trkpt lat="37.481976" lon="126.54949">
        <ele>21.84</ele>
      </trkpt>
      <trkpt lat="37.482128" lon="126.549673">
        <ele>23.6</ele>
      </trkpt>
      <trkpt lat="37.482268" lon="126.549788">
        <ele>24.87</ele>
      </trkpt>
      <trkpt lat="37.482413" lon="126.549854">
        <ele>26.05</ele>
      </trkpt>
      <trkpt lat="37.482573" lon="126.549864">
        <ele>24.65</ele>
      </trkpt>
      <trkpt lat="37.483412" lon="126.549859">
        <ele>21.42</ele>
      </trkpt>
      <trkpt lat="37.483435" lon="126.549867">
        <ele>21.37</ele>
      </trkpt>
      <trkpt lat="37.483435" lon="126.549804">
        <ele>21.12</ele>
      </trkpt>
      <trkpt lat="37.482562" lon="126.549751">
        <ele>21.81</ele>
      </trkpt>
      <trkpt lat="37.482574" lon="126.549345">
        <ele>19.98</ele>
      </trkpt>
      <trkpt lat="37.482467" lon="126.549329">
        <ele>20</ele>
      </trkpt>
      <trkpt lat="37.482346" lon="126.549248">
        <ele>20</ele>
      </trkpt>
      <trkpt lat="37.482253" lon="126.549171">
        <ele>20</ele>
      </trkpt>
      <trkpt lat="37.482165" lon="126.549037">
        <ele>20</ele>
      </trkpt>
      <trkpt lat="37.482139" lon="126.548865">
        <ele>20</ele>
      </trkpt>
      <trkpt lat="37.482156" lon="126.548701">
        <ele>20</ele>
      </trkpt>
      <trkpt lat="37.482188" lon="126.548548">
        <ele>20</ele>
      </trkpt>
      <trkpt lat="37.482845" lon="126.547404">
        <ele>18.99</ele>
      </trkpt>
      <trkpt lat="37.482576" lon="126.547225">
        <ele>20</ele>
      </trkpt>
      <trkpt lat="37.482694" lon="126.546963">
        <ele>20</ele>
      </trkpt>
      <trkpt lat="37.48277" lon="126.546694">
        <ele>19.58</ele>
      </trkpt>
      <trkpt lat="37.48279" lon="126.546517">
        <ele>19.39</ele>
      </trkpt>
      <trkpt lat="37.482798" lon="126.546301">
        <ele>19.33</ele>
      </trkpt>
      <trkpt lat="37.482773" lon="126.546089">
        <ele>19.1</ele>
      </trkpt>
      <trkpt lat="37.482688" lon="126.545798">
        <ele>18.03</ele>
      </trkpt>
      <trkpt lat="37.482307" lon="126.544784">
        <ele>17</ele>
      </trkpt>
      <trkpt lat="37.482104" lon="126.544255">
        <ele>20.16</ele>
      </trkpt>
      <trkpt lat="37.482009" lon="126.544103">
        <ele>21.49</ele>
      </trkpt>
      <trkpt lat="37.481894" lon="126.543977">
        <ele>22.76</ele>
      </trkpt>
      <trkpt lat="37.481773" lon="126.543877">
        <ele>22.84</ele>
      </trkpt>
      <trkpt lat="37.481769" lon="126.543873">
        <ele>22.84</ele>
      </trkpt>
      <trkpt lat="37.481663" lon="126.54356">
        <ele>18.45</ele>
      </trkpt>
      <trkpt lat="37.481289" lon="126.542461">
        <ele>12.72</ele>
      </trkpt>
      <trkpt lat="37.481103" lon="126.541914">
        <ele>11</ele>
      </trkpt>
      <trkpt lat="37.481158" lon="126.541893">
        <ele>10.97</ele>
      </trkpt>
      <trkpt lat="37.481505" lon="126.541699">
        <ele>10.08</ele>
      </trkpt>
      <trkpt lat="37.481535" lon="126.541683">
        <ele>10</ele>
      </trkpt>
      <trkpt lat="37.481479" lon="126.541519">
        <ele>10</ele>
      </trkpt>
      <trkpt lat="37.481322" lon="126.541614">
        <ele>10</ele>
      </trkpt>
      <trkpt lat="37.481159" lon="126.541161">
        <ele>8.98</ele>
      </trkpt>
      <trkpt lat="37.481097" lon="126.540868">
        <ele>8.21</ele>
      </trkpt>
      <trkpt lat="37.480972" lon="126.540492">
        <ele>6.98</ele>
      </trkpt>
      <trkpt lat="37.480701" lon="126.539842">
        <ele>6.31</ele>
      </trkpt>
      <trkpt lat="37.480509" lon="126.539471">
        <ele>6.79</ele>
      </trkpt>
      <trkpt lat="37.479406" lon="126.537571">
        <ele>5.77</ele>
      </trkpt>
      <trkpt lat="37.478611" lon="126.536244">
        <ele>5.99</ele>
      </trkpt>
      <trkpt lat="37.478322" lon="126.53567">
        <ele>5.87</ele>
      </trkpt>
      <trkpt lat="37.478153" lon="126.535304">
        <ele>5.76</ele>
      </trkpt>
      <trkpt lat="37.477949" lon="126.534785">
        <ele>6.14</ele>
      </trkpt>
      <trkpt lat="37.477785" lon="126.534269">
        <ele>5.94</ele>
      </trkpt>
      <trkpt lat="37.477583" lon="126.533521">
        <ele>6.46</ele>
      </trkpt>
      <trkpt lat="37.477562" lon="126.533411">
        <ele>6.63</ele>
      </trkpt>
      <trkpt lat="37.477517" lon="126.533171">
        <ele>6.98</ele>
      </trkpt>
      <trkpt lat="37.477491" lon="126.533088">
        <ele>6.79</ele>
      </trkpt>
      <trkpt lat="37.477449" lon="126.533044">
        <ele>6.61</ele>
      </trkpt>
      <trkpt lat="37.477381" lon="126.533024">
        <ele>6.38</ele>
      </trkpt>
      <trkpt lat="37.476715" lon="126.533049">
        <ele>6.23</ele>
      </trkpt>
      <trkpt lat="37.476411" lon="126.533025">
        <ele>6</ele>
      </trkpt>
      <trkpt lat="37.475639" lon="126.533066">
        <ele>6.45</ele>
      </trkpt>
      <trkpt lat="37.475532" lon="126.533072">
        <ele>6.51</ele>
      </trkpt>
      <trkpt lat="37.475528" lon="126.533096">
        <ele>6.57</ele>
      </trkpt>
      <trkpt lat="37.475451" lon="126.533097">
        <ele>6.96</ele>
      </trkpt>
      <trkpt lat="37.475456" lon="126.533038">
        <ele>6.74</ele>
      </trkpt>
      <trkpt lat="37.475432" lon="126.532933">
        <ele>6.36</ele>
      </trkpt>
      <trkpt lat="37.475151" lon="126.532646">
        <ele>5.63</ele>
      </trkpt>
      <trkpt lat="37.475057" lon="126.532496">
        <ele>5.97</ele>
      </trkpt>
      <trkpt lat="37.474955" lon="126.53223">
        <ele>6</ele>
      </trkpt>
      <trkpt lat="37.474615" lon="126.531242">
        <ele>5.19</ele>
      </trkpt>
      <trkpt lat="37.474385" lon="126.530714">
        <ele>5.78</ele>
      </trkpt>
      <trkpt lat="37.473949" lon="126.529655">
        <ele>5.08</ele>
      </trkpt>
      <trkpt lat="37.473535" lon="126.528697">
        <ele>5.91</ele>
      </trkpt>
      <trkpt lat="37.4729" lon="126.527261">
        <ele>5.02</ele>
      </trkpt>
      <trkpt lat="37.471856" lon="126.524858">
        <ele>5</ele>
      </trkpt>
      <trkpt lat="37.471454" lon="126.523957">
        <ele>6.08</ele>
      </trkpt>
      <trkpt lat="37.471856" lon="126.524858">
        <ele>5</ele>
      </trkpt>
      <trkpt lat="37.4729" lon="126.527261">
        <ele>5.02</ele>
      </trkpt>
      <trkpt lat="37.473535" lon="126.528697">
        <ele>5.91</ele>
      </trkpt>
      <trkpt lat="37.47399" lon="126.529749">
        <ele>5</ele>
      </trkpt>
      <trkpt lat="37.474385" lon="126.530714">
        <ele>5.78</ele>
      </trkpt>
      <trkpt lat="37.474615" lon="126.531242">
        <ele>5.19</ele>
      </trkpt>
      <trkpt lat="37.474955" lon="126.53223">
        <ele>6</ele>
      </trkpt>
      <trkpt lat="37.475057" lon="126.532496">
        <ele>5.97</ele>
      </trkpt>
      <trkpt lat="37.475151" lon="126.532646">
        <ele>5.63</ele>
      </trkpt>
      <trkpt lat="37.475432" lon="126.532933">
        <ele>6.36</ele>
      </trkpt>
      <trkpt lat="37.475456" lon="126.533038">
        <ele>6.74</ele>
      </trkpt>
      <trkpt lat="37.475451" lon="126.533097">
        <ele>6.96</ele>
      </trkpt>
      <trkpt lat="37.475486" lon="126.533097">
        <ele>6.85</ele>
      </trkpt>
      <trkpt lat="37.475487" lon="126.533018">
        <ele>6.53</ele>
      </trkpt>
      <trkpt lat="37.475432" lon="126.532886">
        <ele>6.12</ele>
      </trkpt>
      <trkpt lat="37.475177" lon="126.532644">
        <ele>5.51</ele>
      </trkpt>
      <trkpt lat="37.475049" lon="126.532383">
        <ele>6</ele>
      </trkpt>
      <trkpt lat="37.47464" lon="126.531213">
        <ele>5.09</ele>
      </trkpt>
      <trkpt lat="37.47407" lon="126.529828">
        <ele>5.03</ele>
      </trkpt>
      <trkpt lat="37.473491" lon="126.528531">
        <ele>6</ele>
      </trkpt>
      <trkpt lat="37.471466" lon="126.523879">
        <ele>5.84</ele>
      </trkpt>
      <trkpt lat="37.471564" lon="126.523798">
        <ele>6.02</ele>
      </trkpt>
      <trkpt lat="37.471638" lon="126.523409">
        <ele>7.25</ele>
      </trkpt>
      <trkpt lat="37.471655" lon="126.523128">
        <ele>8</ele>
      </trkpt>
      <trkpt lat="37.471646" lon="126.522911">
        <ele>8</ele>
      </trkpt>
      <trkpt lat="37.471586" lon="126.522584">
        <ele>8</ele>
      </trkpt>
      <trkpt lat="37.471503" lon="126.52234">
        <ele>8</ele>
      </trkpt>
      <trkpt lat="37.471402" lon="126.522124">
        <ele>8</ele>
      </trkpt>
      <trkpt lat="37.471255" lon="126.521905">
        <ele>8</ele>
      </trkpt>
      <trkpt lat="37.471097" lon="126.521753">
        <ele>7.95</ele>
      </trkpt>
      <trkpt lat="37.470929" lon="126.521641">
        <ele>6.84</ele>
      </trkpt>
      <trkpt lat="37.470921" lon="126.521559">
        <ele>6.66</ele>
      </trkpt>
      <trkpt lat="37.470971" lon="126.521447">
        <ele>7.03</ele>
      </trkpt>
      <trkpt lat="37.470966" lon="126.521383">
        <ele>6.99</ele>
      </trkpt>
      <trkpt lat="37.470916" lon="126.52131">
        <ele>6.62</ele>
      </trkpt>
      <trkpt lat="37.470838" lon="126.521229">
        <ele>6.05</ele>
      </trkpt>
      <trkpt lat="37.470761" lon="126.521068">
        <ele>6.43</ele>
      </trkpt>
      <trkpt lat="37.470742" lon="126.520977">
        <ele>6.62</ele>
      </trkpt>
      <trkpt lat="37.470778" lon="126.520957">
        <ele>6.7</ele>
      </trkpt>
      <trkpt lat="37.4709" lon="126.520889">
        <ele>7</ele>
      </trkpt>
      <trkpt lat="37.471028" lon="126.520888">
        <ele>7.44</ele>
      </trkpt>
      <trkpt lat="37.4719" lon="126.520599">
        <ele>8.93</ele>
      </trkpt>
      <trkpt lat="37.471903" lon="126.520621">
        <ele>8.94</ele>
      </trkpt>
      <trkpt lat="37.471801" lon="126.520261">
        <ele>9</ele>
      </trkpt>
      <trkpt lat="37.471635" lon="126.519912">
        <ele>8</ele>
      </trkpt>
      <trkpt lat="37.471395" lon="126.519555">
        <ele>7.72</ele>
      </trkpt>
      <trkpt lat="37.47197" lon="126.519034">
        <ele>8</ele>
      </trkpt>
      <trkpt lat="37.472257" lon="126.518618">
        <ele>8</ele>
      </trkpt>
      <trkpt lat="37.472686" lon="126.517298">
        <ele>8.53</ele>
      </trkpt>
      <trkpt lat="37.472576" lon="126.517242">
        <ele>8.64</ele>
      </trkpt>
      <trkpt lat="37.472686" lon="126.517298">
        <ele>8.53</ele>
      </trkpt>
      <trkpt lat="37.47273" lon="126.51717">
        <ele>8.09</ele>
      </trkpt>
      <trkpt lat="37.472813" lon="126.517213">
        <ele>8</ele>
      </trkpt>
      <trkpt lat="37.472823" lon="126.517243">
        <ele>8</ele>
      </trkpt>
      <trkpt lat="37.472844" lon="126.517268">
        <ele>8.01</ele>
      </trkpt>
      <trkpt lat="37.473635" lon="126.517684">
        <ele>7.76</ele>
      </trkpt>
      <trkpt lat="37.473604" lon="126.517776">
        <ele>7.7</ele>
      </trkpt>
      <trkpt lat="37.473738" lon="126.517846">
        <ele>7.24</ele>
      </trkpt>
      <trkpt lat="37.473604" lon="126.517776">
        <ele>7.7</ele>
      </trkpt>
      <trkpt lat="37.473635" lon="126.517684">
        <ele>7.76</ele>
      </trkpt>
      <trkpt lat="37.473708" lon="126.51765">
        <ele>7.76</ele>
      </trkpt>
      <trkpt lat="37.473714" lon="126.517604">
        <ele>8</ele>
      </trkpt>
      <trkpt lat="37.473789" lon="126.517388">
        <ele>8.09</ele>
      </trkpt>
      <trkpt lat="37.473896" lon="126.517153">
        <ele>8.36</ele>
      </trkpt>
      <trkpt lat="37.474286" lon="126.51639">
        <ele>8.72</ele>
      </trkpt>
      <trkpt lat="37.474659" lon="126.515817">
        <ele>7.96</ele>
      </trkpt>
      <trkpt lat="37.474656" lon="126.515734">
        <ele>7.98</ele>
      </trkpt>
      <trkpt lat="37.474609" lon="126.515664">
        <ele>8</ele>
      </trkpt>
      <trkpt lat="37.474586" lon="126.515643">
        <ele>8</ele>
      </trkpt>
      <trkpt lat="37.474609" lon="126.515664">
        <ele>8</ele>
      </trkpt>
      <trkpt lat="37.474656" lon="126.515734">
        <ele>7.98</ele>
      </trkpt>
      <trkpt lat="37.47471" lon="126.51573">
        <ele>7.58</ele>
      </trkpt>
      <trkpt lat="37.474734" lon="126.515706">
        <ele>7.41</ele>
      </trkpt>
      <trkpt lat="37.474926" lon="126.515391">
        <ele>7.89</ele>
      </trkpt>
      <trkpt lat="37.474957" lon="126.515301">
        <ele>8</ele>
      </trkpt>
      <trkpt lat="37.474956" lon="126.515247">
        <ele>8</ele>
      </trkpt>
      <trkpt lat="37.47507" lon="126.515217">
        <ele>8</ele>
      </trkpt>
      <trkpt lat="37.475492" lon="126.514496">
        <ele>8</ele>
      </trkpt>
      <trkpt lat="37.475573" lon="126.514276">
        <ele>8</ele>
      </trkpt>
      <trkpt lat="37.475858" lon="126.513803">
        <ele>8</ele>
      </trkpt>
      <trkpt lat="37.475923" lon="126.51374">
        <ele>8</ele>
      </trkpt>
      <trkpt lat="37.476002" lon="126.513644">
        <ele>8</ele>
      </trkpt>
      <trkpt lat="37.476705" lon="126.512474">
        <ele>8</ele>
      </trkpt>
      <trkpt lat="37.477016" lon="126.511937">
        <ele>8</ele>
      </trkpt>
      <trkpt lat="37.477024" lon="126.511871">
        <ele>8</ele>
      </trkpt>
      <trkpt lat="37.477016" lon="126.511857">
        <ele>8</ele>
      </trkpt>
      <trkpt lat="37.477024" lon="126.511871">
        <ele>8</ele>
      </trkpt>
      <trkpt lat="37.477071" lon="126.511773">
        <ele>8</ele>
      </trkpt>
      <trkpt lat="37.477027" lon="126.511846">
        <ele>7.98</ele>
      </trkpt>
      <trkpt lat="37.476999" lon="126.511824">
        <ele>8</ele>
      </trkpt>
      <trkpt lat="37.477024" lon="126.511871">
        <ele>8</ele>
      </trkpt>
      <trkpt lat="37.477144" lon="126.511618">
        <ele>8</ele>
      </trkpt>
      <trkpt lat="37.477147" lon="126.511612">
        <ele>8</ele>
      </trkpt>
      <trkpt lat="37.477176" lon="126.511609">
        <ele>8</ele>
      </trkpt>
      <trkpt lat="37.477224" lon="126.51157">
        <ele>8</ele>
      </trkpt>
      <trkpt lat="37.477409" lon="126.511215">
        <ele>8</ele>
      </trkpt>
      <trkpt lat="37.477547" lon="126.511042">
        <ele>8</ele>
      </trkpt>
      <trkpt lat="37.477635" lon="126.510917">
        <ele>8</ele>
      </trkpt>
      <trkpt lat="37.478525" lon="126.509412">
        <ele>8</ele>
      </trkpt>
      <trkpt lat="37.478778" lon="126.509027">
        <ele>8</ele>
      </trkpt>
      <trkpt lat="37.478929" lon="126.50882">
        <ele>8</ele>
      </trkpt>
      <trkpt lat="37.479215" lon="126.508438">
        <ele>8</ele>
      </trkpt>
      <trkpt lat="37.47934" lon="126.508257">
        <ele>8.25</ele>
      </trkpt>
      <trkpt lat="37.479614" lon="126.507976">
        <ele>8.66</ele>
      </trkpt>
      <trkpt lat="37.480275" lon="126.507477">
        <ele>8</ele>
      </trkpt>
      <trkpt lat="37.480446" lon="126.507368">
        <ele>8</ele>
      </trkpt>
      <trkpt lat="37.480942" lon="126.507096">
        <ele>8</ele>
      </trkpt>
      <trkpt lat="37.482136" lon="126.506465">
        <ele>9</ele>
      </trkpt>
      <trkpt lat="37.482204" lon="126.506422">
        <ele>9.04</ele>
      </trkpt>
      <trkpt lat="37.48236" lon="126.506298">
        <ele>9.76</ele>
      </trkpt>
      <trkpt lat="37.482735" lon="126.506119">
        <ele>10</ele>
      </trkpt>
      <trkpt lat="37.483204" lon="126.505877">
        <ele>10</ele>
      </trkpt>
      <trkpt lat="37.483238" lon="126.505838">
        <ele>10</ele>
      </trkpt>
      <trkpt lat="37.483245" lon="126.505799">
        <ele>10</ele>
      </trkpt>
      <trkpt lat="37.483585" lon="126.505618">
        <ele>11.31</ele>
      </trkpt>
      <trkpt lat="37.483604" lon="126.505629">
        <ele>11.38</ele>
      </trkpt>
      <trkpt lat="37.48365" lon="126.505621">
        <ele>11.64</ele>
      </trkpt>
      <trkpt lat="37.484302" lon="126.505278">
        <ele>13</ele>
      </trkpt>
      <trkpt lat="37.484582" lon="126.50516">
        <ele>14</ele>
      </trkpt>
      <trkpt lat="37.485644" lon="126.50462">
        <ele>17</ele>
      </trkpt>
      <trkpt lat="37.485673" lon="126.504582">
        <ele>17</ele>
      </trkpt>
      <trkpt lat="37.485683" lon="126.504543">
        <ele>16.95</ele>
      </trkpt>
      <trkpt lat="37.485687" lon="126.504525">
        <ele>16.93</ele>
      </trkpt>
      <trkpt lat="37.485673" lon="126.504463">
        <ele>16.57</ele>
      </trkpt>
      <trkpt lat="37.48535" lon="126.503513">
        <ele>14.05</ele>
      </trkpt>
      <trkpt lat="37.484961" lon="126.502368">
        <ele>14</ele>
      </trkpt>
      <trkpt lat="37.484964" lon="126.502375">
        <ele>14</ele>
      </trkpt>
      <trkpt lat="37.485113" lon="126.502298">
        <ele>13.98</ele>
      </trkpt>
    </trkseg>
  </trk>
</gpx>
