<?xml version="1.0" encoding="UTF-8"?>
<gpx version="1.1" creator="kkumgil" xmlns="http://www.topografix.com/GPX/1/1">
  <metadata><name>꿈길 걷기 1일차</name><desc>선생님이 gpx.studio 로 그린 24km 에서, 송산로87번길 블록을 네모나게 한 바퀴 도는 1.03km 자국을 뺐다(2026-09-30, 선생님이 지도에 빨간 표시로 지목). 두 끝이 50m 거리라 직선으로 이었다 — 길을 따라 다시 뽑으면 같은 블록을 또 돈다.</desc></metadata>
  <trk><name>꿈길 걷기 1일차</name><trkseg>
    <trkpt lat="37.485196" lon="126.501936"></trkpt>
    <trkpt lat="37.485115" lon="126.501950"></trkpt>
    <trkpt lat="37.485030" lon="126.502100"></trkpt>
    <trkpt lat="37.485131" lon="126.502283"></trkpt>
    <trkpt lat="37.486819" lon="126.501355"></trkpt>
    <trkpt lat="37.487287" lon="126.501172"></trkpt>
    <trkpt lat="37.487909" lon="126.500753"></trkpt>
    <trkpt lat="37.488054" lon="126.500815"></trkpt>
    <trkpt lat="37.488299" lon="126.501296"></trkpt>
    <trkpt lat="37.488558" lon="126.501518"></trkpt>
    <trkpt lat="37.488658" lon="126.501533"></trkpt>
    <trkpt lat="37.488810" lon="126.501353"></trkpt>
    <trkpt lat="37.489005" lon="126.501358"></trkpt>
    <trkpt lat="37.489031" lon="126.501298"></trkpt>
    <trkpt lat="37.488912" lon="126.500897"></trkpt>
    <trkpt lat="37.488906" lon="126.500594"></trkpt>
    <trkpt lat="37.488917" lon="126.500715"></trkpt>
    <trkpt lat="37.489294" lon="126.500851"></trkpt>
    <trkpt lat="37.489768" lon="126.501240"></trkpt>
    <trkpt lat="37.490404" lon="126.501260"></trkpt>
    <trkpt lat="37.490644" lon="126.501499"></trkpt>
    <trkpt lat="37.490804" lon="126.501949"></trkpt>
    <trkpt lat="37.491166" lon="126.502565"></trkpt>
    <trkpt lat="37.491315" lon="126.502600"></trkpt>
    <trkpt lat="37.491585" lon="126.502503"></trkpt>
    <trkpt lat="37.492152" lon="126.502721"></trkpt>
    <trkpt lat="37.492348" lon="126.502701"></trkpt>
    <trkpt lat="37.492779" lon="126.502843"></trkpt>
    <trkpt lat="37.492915" lon="126.502679"></trkpt>
    <trkpt lat="37.493743" lon="126.503285"></trkpt>
    <trkpt lat="37.493980" lon="126.503292"></trkpt>
    <trkpt lat="37.494094" lon="126.503499"></trkpt>
    <trkpt lat="37.494226" lon="126.503600"></trkpt>
    <trkpt lat="37.494530" lon="126.503676"></trkpt>
    <trkpt lat="37.494828" lon="126.503888"></trkpt>
    <trkpt lat="37.494957" lon="126.504245"></trkpt>
    <trkpt lat="37.495050" lon="126.504910"></trkpt>
    <trkpt lat="37.495214" lon="126.505360"></trkpt>
    <trkpt lat="37.495551" lon="126.505843"></trkpt>
    <trkpt lat="37.495578" lon="126.506024"></trkpt>
    <trkpt lat="37.495693" lon="126.506227"></trkpt>
    <trkpt lat="37.495677" lon="126.506407"></trkpt>
    <trkpt lat="37.496024" lon="126.506884"></trkpt>
    <trkpt lat="37.496653" lon="126.507600"></trkpt>
    <trkpt lat="37.496943" lon="126.507748"></trkpt>
    <trkpt lat="37.497501" lon="126.508212"></trkpt>
    <trkpt lat="37.497825" lon="126.508340"></trkpt>
    <trkpt lat="37.498676" lon="126.508481"></trkpt>
    <trkpt lat="37.498749" lon="126.509012"></trkpt>
    <trkpt lat="37.498659" lon="126.509229"></trkpt>
    <trkpt lat="37.498635" lon="126.509781"></trkpt>
    <trkpt lat="37.498526" lon="126.510205"></trkpt>
    <trkpt lat="37.498025" lon="126.510708"></trkpt>
    <trkpt lat="37.497815" lon="126.510719"></trkpt>
    <trkpt lat="37.497671" lon="126.510872"></trkpt>
    <trkpt lat="37.497520" lon="126.510892"></trkpt>
    <trkpt lat="37.496890" lon="126.511412"></trkpt>
    <trkpt lat="37.496573" lon="126.511457"></trkpt>
    <trkpt lat="37.496301" lon="126.511583"></trkpt>
    <trkpt lat="37.495785" lon="126.512041"></trkpt>
    <trkpt lat="37.495343" lon="126.512277"></trkpt>
    <trkpt lat="37.495138" lon="126.512612"></trkpt>
    <trkpt lat="37.495095" lon="126.512852"></trkpt>
    <trkpt lat="37.494708" lon="126.513633"></trkpt>
    <trkpt lat="37.494833" lon="126.514329"></trkpt>
    <trkpt lat="37.494638" lon="126.514594"></trkpt>
    <trkpt lat="37.494339" lon="126.514647"></trkpt>
    <trkpt lat="37.493807" lon="126.515060"></trkpt>
    <trkpt lat="37.493528" lon="126.515560"></trkpt>
    <trkpt lat="37.493350" lon="126.515633"></trkpt>
    <trkpt lat="37.493366" lon="126.515810"></trkpt>
    <trkpt lat="37.493493" lon="126.516220"></trkpt>
    <trkpt lat="37.493699" lon="126.516458"></trkpt>
    <trkpt lat="37.493902" lon="126.517209"></trkpt>
    <trkpt lat="37.494200" lon="126.517561"></trkpt>
    <trkpt lat="37.494133" lon="126.518088"></trkpt>
    <trkpt lat="37.494341" lon="126.518509"></trkpt>
    <trkpt lat="37.494425" lon="126.519341"></trkpt>
    <trkpt lat="37.494737" lon="126.519701"></trkpt>
    <trkpt lat="37.494896" lon="126.520080"></trkpt>
    <trkpt lat="37.495057" lon="126.520749"></trkpt>
    <trkpt lat="37.495150" lon="126.521558"></trkpt>
    <trkpt lat="37.495259" lon="126.521925"></trkpt>
    <trkpt lat="37.495409" lon="126.522085"></trkpt>
    <trkpt lat="37.495556" lon="126.522391"></trkpt>
    <trkpt lat="37.495584" lon="126.522906"></trkpt>
    <trkpt lat="37.495771" lon="126.523454"></trkpt>
    <trkpt lat="37.496204" lon="126.524189"></trkpt>
    <trkpt lat="37.496874" lon="126.524361"></trkpt>
    <trkpt lat="37.496975" lon="126.524501"></trkpt>
    <trkpt lat="37.497093" lon="126.525079"></trkpt>
    <trkpt lat="37.497353" lon="126.525455"></trkpt>
    <trkpt lat="37.496912" lon="126.526709"></trkpt>
    <trkpt lat="37.496945" lon="126.526859"></trkpt>
    <trkpt lat="37.496764" lon="126.526967"></trkpt>
    <trkpt lat="37.496689" lon="126.527125"></trkpt>
    <trkpt lat="37.496479" lon="126.527962"></trkpt>
    <trkpt lat="37.496407" lon="126.529343"></trkpt>
    <trkpt lat="37.496472" lon="126.529765"></trkpt>
    <trkpt lat="37.496592" lon="126.529947"></trkpt>
    <trkpt lat="37.496625" lon="126.530118"></trkpt>
    <trkpt lat="37.496731" lon="126.530007"></trkpt>
    <trkpt lat="37.496685" lon="126.529763"></trkpt>
    <trkpt lat="37.496785" lon="126.529004"></trkpt>
    <trkpt lat="37.496963" lon="126.528477"></trkpt>
    <trkpt lat="37.497018" lon="126.528493"></trkpt>
    <trkpt lat="37.497140" lon="126.528892"></trkpt>
    <trkpt lat="37.497053" lon="126.529173"></trkpt>
    <trkpt lat="37.497164" lon="126.529585"></trkpt>
    <trkpt lat="37.497260" lon="126.529719"></trkpt>
    <trkpt lat="37.497213" lon="126.529823"></trkpt>
    <trkpt lat="37.497389" lon="126.530586"></trkpt>
    <trkpt lat="37.497446" lon="126.531136"></trkpt>
    <trkpt lat="37.497735" lon="126.532040"></trkpt>
    <trkpt lat="37.497907" lon="126.532271"></trkpt>
    <trkpt lat="37.499161" lon="126.532697"></trkpt>
    <trkpt lat="37.499246" lon="126.532637"></trkpt>
    <trkpt lat="37.499289" lon="126.532528"></trkpt>
    <trkpt lat="37.499260" lon="126.532424"></trkpt>
    <trkpt lat="37.499337" lon="126.532269"></trkpt>
    <trkpt lat="37.499657" lon="126.532090"></trkpt>
    <trkpt lat="37.499993" lon="126.532056"></trkpt>
    <trkpt lat="37.500603" lon="126.532124"></trkpt>
    <trkpt lat="37.500991" lon="126.531989"></trkpt>
    <trkpt lat="37.501241" lon="126.532016"></trkpt>
    <trkpt lat="37.501987" lon="126.532583"></trkpt>
    <trkpt lat="37.502411" lon="126.532737"></trkpt>
    <trkpt lat="37.502406" lon="126.532864"></trkpt>
    <trkpt lat="37.502034" lon="126.533755"></trkpt>
    <trkpt lat="37.502211" lon="126.533397"></trkpt>
    <trkpt lat="37.500386" lon="126.538198"></trkpt>
    <trkpt lat="37.498002" lon="126.545213"></trkpt>
    <trkpt lat="37.495527" lon="126.549325"></trkpt>
    <trkpt lat="37.495108" lon="126.550144"></trkpt>
    <trkpt lat="37.494710" lon="126.550645"></trkpt>
    <trkpt lat="37.494164" lon="126.551588"></trkpt>
    <trkpt lat="37.492753" lon="126.553714"></trkpt>
    <trkpt lat="37.494246" lon="126.555158"></trkpt>
    <trkpt lat="37.496648" lon="126.557721"></trkpt>
    <trkpt lat="37.496761" lon="126.557980"></trkpt>
    <trkpt lat="37.496768" lon="126.558363"></trkpt>
    <trkpt lat="37.496607" lon="126.558678"></trkpt>
    <trkpt lat="37.496614" lon="126.558996"></trkpt>
    <trkpt lat="37.496857" lon="126.559058"></trkpt>
    <trkpt lat="37.497146" lon="126.559024"></trkpt>
    <trkpt lat="37.497326" lon="126.559219"></trkpt>
    <trkpt lat="37.497256" lon="126.559306"></trkpt>
    <trkpt lat="37.496915" lon="126.559486"></trkpt>
    <trkpt lat="37.496726" lon="126.559767"></trkpt>
    <trkpt lat="37.495846" lon="126.560377"></trkpt>
    <trkpt lat="37.495721" lon="126.560648"></trkpt>
    <trkpt lat="37.495669" lon="126.561109"></trkpt>
    <trkpt lat="37.495534" lon="126.561140"></trkpt>
    <trkpt lat="37.495268" lon="126.561017"></trkpt>
    <trkpt lat="37.495232" lon="126.561052"></trkpt>
    <trkpt lat="37.494714" lon="126.562347"></trkpt>
    <trkpt lat="37.494626" lon="126.562424"></trkpt>
    <trkpt lat="37.494756" lon="126.562687"></trkpt>
    <trkpt lat="37.494643" lon="126.562964"></trkpt>
    <trkpt lat="37.494278" lon="126.563395"></trkpt>
    <trkpt lat="37.493898" lon="126.563348"></trkpt>
    <trkpt lat="37.493916" lon="126.563454"></trkpt>
    <trkpt lat="37.494208" lon="126.563847"></trkpt>
    <trkpt lat="37.494123" lon="126.563821"></trkpt>
    <trkpt lat="37.494058" lon="126.563914"></trkpt>
    <trkpt lat="37.493753" lon="126.564523"></trkpt>
    <trkpt lat="37.493293" lon="126.564932"></trkpt>
    <trkpt lat="37.493089" lon="126.565373"></trkpt>
    <trkpt lat="37.492726" lon="126.565794"></trkpt>
    <trkpt lat="37.492512" lon="126.565929"></trkpt>
    <trkpt lat="37.492126" lon="126.565607"></trkpt>
    <trkpt lat="37.491366" lon="126.564755"></trkpt>
    <trkpt lat="37.490778" lon="126.564272"></trkpt>
    <trkpt lat="37.490550" lon="126.563915"></trkpt>
    <trkpt lat="37.490324" lon="126.563736"></trkpt>
    <trkpt lat="37.490198" lon="126.563558"></trkpt>
    <trkpt lat="37.490027" lon="126.563409"></trkpt>
    <trkpt lat="37.489853" lon="126.563338"></trkpt>
    <trkpt lat="37.489804" lon="126.563168"></trkpt>
    <trkpt lat="37.489508" lon="126.562985"></trkpt>
    <trkpt lat="37.489413" lon="126.562760"></trkpt>
    <trkpt lat="37.488973" lon="126.562403"></trkpt>
    <trkpt lat="37.488621" lon="126.561868"></trkpt>
    <trkpt lat="37.488488" lon="126.561794"></trkpt>
    <trkpt lat="37.488272" lon="126.561541"></trkpt>
    <trkpt lat="37.488084" lon="126.561447"></trkpt>
    <trkpt lat="37.487933" lon="126.561201"></trkpt>
    <trkpt lat="37.487582" lon="126.560941"></trkpt>
    <trkpt lat="37.487361" lon="126.560671"></trkpt>
    <trkpt lat="37.487227" lon="126.560578"></trkpt>
    <trkpt lat="37.487146" lon="126.560646"></trkpt>
    <trkpt lat="37.487052" lon="126.560613"></trkpt>
    <trkpt lat="37.487200" lon="126.560389"></trkpt>
    <trkpt lat="37.486269" lon="126.559404"></trkpt>
    <trkpt lat="37.485787" lon="126.560115"></trkpt>
    <trkpt lat="37.485190" lon="126.559516"></trkpt>
    <trkpt lat="37.484385" lon="126.560729"></trkpt>
    <trkpt lat="37.484283" lon="126.560752"></trkpt>
    <trkpt lat="37.484059" lon="126.561225"></trkpt>
    <trkpt lat="37.484065" lon="126.561346"></trkpt>
    <trkpt lat="37.481650" lon="126.564960"></trkpt>
    <trkpt lat="37.481425" lon="126.565336"></trkpt>
    <trkpt lat="37.481514" lon="126.565437"></trkpt>
    <trkpt lat="37.481324" lon="126.565595"></trkpt>
    <trkpt lat="37.481067" lon="126.565713"></trkpt>
    <trkpt lat="37.480873" lon="126.565745"></trkpt>
    <trkpt lat="37.480688" lon="126.565705"></trkpt>
    <trkpt lat="37.480425" lon="126.565562"></trkpt>
    <trkpt lat="37.480425" lon="126.565562"></trkpt>
    <trkpt lat="37.480242" lon="126.565431"></trkpt>
    <trkpt lat="37.480089" lon="126.565290"></trkpt>
    <trkpt lat="37.479984" lon="126.565098"></trkpt>
    <trkpt lat="37.479703" lon="126.564286"></trkpt>
    <trkpt lat="37.479525" lon="126.563631"></trkpt>
    <trkpt lat="37.478676" lon="126.559777"></trkpt>
    <trkpt lat="37.478217" lon="126.557776"></trkpt>
    <trkpt lat="37.478186" lon="126.557634"></trkpt>
    <trkpt lat="37.478676" lon="126.559777"></trkpt>
    <trkpt lat="37.479525" lon="126.563631"></trkpt>
    <trkpt lat="37.479703" lon="126.564286"></trkpt>
    <trkpt lat="37.479984" lon="126.565098"></trkpt>
    <trkpt lat="37.480089" lon="126.565290"></trkpt>
    <trkpt lat="37.480242" lon="126.565431"></trkpt>
    <trkpt lat="37.480425" lon="126.565562"></trkpt>
    <trkpt lat="37.480688" lon="126.565705"></trkpt>
    <trkpt lat="37.480873" lon="126.565745"></trkpt>
    <trkpt lat="37.481067" lon="126.565713"></trkpt>
    <trkpt lat="37.481205" lon="126.565663"></trkpt>
    <trkpt lat="37.481324" lon="126.565595"></trkpt>
    <trkpt lat="37.481514" lon="126.565437"></trkpt>
    <trkpt lat="37.481480" lon="126.565399"></trkpt>
    <trkpt lat="37.481383" lon="126.565498"></trkpt>
    <trkpt lat="37.481288" lon="126.565561"></trkpt>
    <trkpt lat="37.481058" lon="126.565657"></trkpt>
    <trkpt lat="37.480873" lon="126.565685"></trkpt>
    <trkpt lat="37.480699" lon="126.565657"></trkpt>
    <trkpt lat="37.480620" lon="126.565624"></trkpt>
    <trkpt lat="37.480371" lon="126.565469"></trkpt>
    <trkpt lat="37.480140" lon="126.565298"></trkpt>
    <trkpt lat="37.480032" lon="126.565131"></trkpt>
    <trkpt lat="37.480011" lon="126.564966"></trkpt>
    <trkpt lat="37.479899" lon="126.564792"></trkpt>
    <trkpt lat="37.479786" lon="126.564459"></trkpt>
    <trkpt lat="37.479523" lon="126.563495"></trkpt>
    <trkpt lat="37.479181" lon="126.561794"></trkpt>
    <trkpt lat="37.478513" lon="126.558962"></trkpt>
    <trkpt lat="37.477117" lon="126.552723"></trkpt>
    <trkpt lat="37.477152" lon="126.552687"></trkpt>
    <trkpt lat="37.477186" lon="126.552653"></trkpt>
    <trkpt lat="37.477338" lon="126.552350"></trkpt>
    <trkpt lat="37.477411" lon="126.551971"></trkpt>
    <trkpt lat="37.477435" lon="126.551925"></trkpt>
    <trkpt lat="37.477544" lon="126.551872"></trkpt>
    <trkpt lat="37.477636" lon="126.551878"></trkpt>
    <trkpt lat="37.477691" lon="126.551848"></trkpt>
    <trkpt lat="37.477690" lon="126.551780"></trkpt>
    <trkpt lat="37.477651" lon="126.551726"></trkpt>
    <trkpt lat="37.477560" lon="126.551516"></trkpt>
    <trkpt lat="37.477563" lon="126.551454"></trkpt>
    <trkpt lat="37.477616" lon="126.551301"></trkpt>
    <trkpt lat="37.477627" lon="126.551130"></trkpt>
    <trkpt lat="37.477646" lon="126.550838"></trkpt>
    <trkpt lat="37.477652" lon="126.550752"></trkpt>
    <trkpt lat="37.477668" lon="126.550715"></trkpt>
    <trkpt lat="37.477692" lon="126.550710"></trkpt>
    <trkpt lat="37.477805" lon="126.550441"></trkpt>
    <trkpt lat="37.477843" lon="126.550350"></trkpt>
    <trkpt lat="37.478120" lon="126.550056"></trkpt>
    <trkpt lat="37.478303" lon="126.549910"></trkpt>
    <trkpt lat="37.478377" lon="126.549811"></trkpt>
    <trkpt lat="37.478482" lon="126.549558"></trkpt>
    <trkpt lat="37.478558" lon="126.549413"></trkpt>
    <trkpt lat="37.478633" lon="126.549147"></trkpt>
    <trkpt lat="37.478782" lon="126.548333"></trkpt>
    <trkpt lat="37.478950" lon="126.548148"></trkpt>
    <trkpt lat="37.479013" lon="126.548120"></trkpt>
    <trkpt lat="37.479049" lon="126.548055"></trkpt>
    <trkpt lat="37.479151" lon="126.547978"></trkpt>
    <trkpt lat="37.479190" lon="126.547871"></trkpt>
    <trkpt lat="37.479364" lon="126.547805"></trkpt>
    <trkpt lat="37.479551" lon="126.547768"></trkpt>
    <trkpt lat="37.479717" lon="126.547699"></trkpt>
    <trkpt lat="37.479838" lon="126.547703"></trkpt>
    <trkpt lat="37.479874" lon="126.547670"></trkpt>
    <trkpt lat="37.480118" lon="126.547445"></trkpt>
    <trkpt lat="37.480160" lon="126.547368"></trkpt>
    <trkpt lat="37.480216" lon="126.547314"></trkpt>
    <trkpt lat="37.480422" lon="126.547194"></trkpt>
    <trkpt lat="37.480500" lon="126.547129"></trkpt>
    <trkpt lat="37.480576" lon="126.547006"></trkpt>
    <trkpt lat="37.480755" lon="126.546937"></trkpt>
    <trkpt lat="37.480818" lon="126.546846"></trkpt>
    <trkpt lat="37.480962" lon="126.546777"></trkpt>
    <trkpt lat="37.481076" lon="126.546657"></trkpt>
    <trkpt lat="37.481118" lon="126.546639"></trkpt>
    <trkpt lat="37.481365" lon="126.546723"></trkpt>
    <trkpt lat="37.481831" lon="126.546881"></trkpt>
    <trkpt lat="37.481861" lon="126.546891"></trkpt>
    <trkpt lat="37.481906" lon="126.546742"></trkpt>
    <trkpt lat="37.482007" lon="126.546502"></trkpt>
    <trkpt lat="37.482328" lon="126.546109"></trkpt>
    <trkpt lat="37.482773" lon="126.546089"></trkpt>
    <trkpt lat="37.482688" lon="126.545798"></trkpt>
    <trkpt lat="37.482307" lon="126.544784"></trkpt>
    <trkpt lat="37.482104" lon="126.544255"></trkpt>
    <trkpt lat="37.482009" lon="126.544103"></trkpt>
    <trkpt lat="37.481894" lon="126.543977"></trkpt>
    <trkpt lat="37.481773" lon="126.543877"></trkpt>
    <trkpt lat="37.481769" lon="126.543873"></trkpt>
    <trkpt lat="37.481663" lon="126.543560"></trkpt>
    <trkpt lat="37.481289" lon="126.542461"></trkpt>
    <trkpt lat="37.481103" lon="126.541914"></trkpt>
    <trkpt lat="37.481158" lon="126.541893"></trkpt>
    <trkpt lat="37.481505" lon="126.541699"></trkpt>
    <trkpt lat="37.481535" lon="126.541683"></trkpt>
    <trkpt lat="37.481479" lon="126.541519"></trkpt>
    <trkpt lat="37.481322" lon="126.541614"></trkpt>
    <trkpt lat="37.481159" lon="126.541161"></trkpt>
    <trkpt lat="37.481097" lon="126.540868"></trkpt>
    <trkpt lat="37.480972" lon="126.540492"></trkpt>
    <trkpt lat="37.480701" lon="126.539842"></trkpt>
    <trkpt lat="37.480509" lon="126.539471"></trkpt>
    <trkpt lat="37.479406" lon="126.537571"></trkpt>
    <trkpt lat="37.478611" lon="126.536244"></trkpt>
    <trkpt lat="37.478322" lon="126.535670"></trkpt>
    <trkpt lat="37.478153" lon="126.535304"></trkpt>
    <trkpt lat="37.477949" lon="126.534785"></trkpt>
    <trkpt lat="37.477785" lon="126.534269"></trkpt>
    <trkpt lat="37.477583" lon="126.533521"></trkpt>
    <trkpt lat="37.477562" lon="126.533411"></trkpt>
    <trkpt lat="37.477517" lon="126.533171"></trkpt>
    <trkpt lat="37.477491" lon="126.533088"></trkpt>
    <trkpt lat="37.477449" lon="126.533044"></trkpt>
    <trkpt lat="37.477381" lon="126.533024"></trkpt>
    <trkpt lat="37.476715" lon="126.533049"></trkpt>
    <trkpt lat="37.476411" lon="126.533025"></trkpt>
    <trkpt lat="37.475639" lon="126.533066"></trkpt>
    <trkpt lat="37.475532" lon="126.533072"></trkpt>
    <trkpt lat="37.475528" lon="126.533096"></trkpt>
    <trkpt lat="37.475451" lon="126.533097"></trkpt>
    <trkpt lat="37.475456" lon="126.533038"></trkpt>
    <trkpt lat="37.475432" lon="126.532933"></trkpt>
    <trkpt lat="37.475151" lon="126.532646"></trkpt>
    <trkpt lat="37.475057" lon="126.532496"></trkpt>
    <trkpt lat="37.474955" lon="126.532230"></trkpt>
    <trkpt lat="37.474615" lon="126.531242"></trkpt>
    <trkpt lat="37.474385" lon="126.530714"></trkpt>
    <trkpt lat="37.473949" lon="126.529655"></trkpt>
    <trkpt lat="37.473535" lon="126.528697"></trkpt>
    <trkpt lat="37.472900" lon="126.527261"></trkpt>
    <trkpt lat="37.471856" lon="126.524858"></trkpt>
    <trkpt lat="37.471454" lon="126.523957"></trkpt>
    <trkpt lat="37.471856" lon="126.524858"></trkpt>
    <trkpt lat="37.472900" lon="126.527261"></trkpt>
    <trkpt lat="37.473535" lon="126.528697"></trkpt>
    <trkpt lat="37.473990" lon="126.529749"></trkpt>
    <trkpt lat="37.474385" lon="126.530714"></trkpt>
    <trkpt lat="37.474615" lon="126.531242"></trkpt>
    <trkpt lat="37.474955" lon="126.532230"></trkpt>
    <trkpt lat="37.475057" lon="126.532496"></trkpt>
    <trkpt lat="37.475151" lon="126.532646"></trkpt>
    <trkpt lat="37.475432" lon="126.532933"></trkpt>
    <trkpt lat="37.475456" lon="126.533038"></trkpt>
    <trkpt lat="37.475451" lon="126.533097"></trkpt>
    <trkpt lat="37.475486" lon="126.533097"></trkpt>
    <trkpt lat="37.475487" lon="126.533018"></trkpt>
    <trkpt lat="37.475432" lon="126.532886"></trkpt>
    <trkpt lat="37.475177" lon="126.532644"></trkpt>
    <trkpt lat="37.475049" lon="126.532383"></trkpt>
    <trkpt lat="37.474640" lon="126.531213"></trkpt>
    <trkpt lat="37.474070" lon="126.529828"></trkpt>
    <trkpt lat="37.473491" lon="126.528531"></trkpt>
    <trkpt lat="37.471466" lon="126.523879"></trkpt>
    <trkpt lat="37.471564" lon="126.523798"></trkpt>
    <trkpt lat="37.471638" lon="126.523409"></trkpt>
    <trkpt lat="37.471655" lon="126.523128"></trkpt>
    <trkpt lat="37.471646" lon="126.522911"></trkpt>
    <trkpt lat="37.471586" lon="126.522584"></trkpt>
    <trkpt lat="37.471503" lon="126.522340"></trkpt>
    <trkpt lat="37.471402" lon="126.522124"></trkpt>
    <trkpt lat="37.471255" lon="126.521905"></trkpt>
    <trkpt lat="37.471097" lon="126.521753"></trkpt>
    <trkpt lat="37.470929" lon="126.521641"></trkpt>
    <trkpt lat="37.470921" lon="126.521559"></trkpt>
    <trkpt lat="37.470971" lon="126.521447"></trkpt>
    <trkpt lat="37.470966" lon="126.521383"></trkpt>
    <trkpt lat="37.470916" lon="126.521310"></trkpt>
    <trkpt lat="37.470838" lon="126.521229"></trkpt>
    <trkpt lat="37.470761" lon="126.521068"></trkpt>
    <trkpt lat="37.470742" lon="126.520977"></trkpt>
    <trkpt lat="37.470778" lon="126.520957"></trkpt>
    <trkpt lat="37.470900" lon="126.520889"></trkpt>
    <trkpt lat="37.471028" lon="126.520888"></trkpt>
    <trkpt lat="37.471900" lon="126.520599"></trkpt>
    <trkpt lat="37.471903" lon="126.520621"></trkpt>
    <trkpt lat="37.471801" lon="126.520261"></trkpt>
    <trkpt lat="37.471635" lon="126.519912"></trkpt>
    <trkpt lat="37.471395" lon="126.519555"></trkpt>
    <trkpt lat="37.471970" lon="126.519034"></trkpt>
    <trkpt lat="37.472257" lon="126.518618"></trkpt>
    <trkpt lat="37.472686" lon="126.517298"></trkpt>
    <trkpt lat="37.472576" lon="126.517242"></trkpt>
    <trkpt lat="37.472686" lon="126.517298"></trkpt>
    <trkpt lat="37.472730" lon="126.517170"></trkpt>
    <trkpt lat="37.472813" lon="126.517213"></trkpt>
    <trkpt lat="37.472823" lon="126.517243"></trkpt>
    <trkpt lat="37.472844" lon="126.517268"></trkpt>
    <trkpt lat="37.473635" lon="126.517684"></trkpt>
    <trkpt lat="37.473604" lon="126.517776"></trkpt>
    <trkpt lat="37.473738" lon="126.517846"></trkpt>
    <trkpt lat="37.473604" lon="126.517776"></trkpt>
    <trkpt lat="37.473635" lon="126.517684"></trkpt>
    <trkpt lat="37.473708" lon="126.517650"></trkpt>
    <trkpt lat="37.473714" lon="126.517604"></trkpt>
    <trkpt lat="37.473789" lon="126.517388"></trkpt>
    <trkpt lat="37.473896" lon="126.517153"></trkpt>
    <trkpt lat="37.474286" lon="126.516390"></trkpt>
    <trkpt lat="37.474659" lon="126.515817"></trkpt>
    <trkpt lat="37.474656" lon="126.515734"></trkpt>
    <trkpt lat="37.474609" lon="126.515664"></trkpt>
    <trkpt lat="37.474586" lon="126.515643"></trkpt>
    <trkpt lat="37.474609" lon="126.515664"></trkpt>
    <trkpt lat="37.474656" lon="126.515734"></trkpt>
    <trkpt lat="37.474710" lon="126.515730"></trkpt>
    <trkpt lat="37.474734" lon="126.515706"></trkpt>
    <trkpt lat="37.474926" lon="126.515391"></trkpt>
    <trkpt lat="37.474957" lon="126.515301"></trkpt>
    <trkpt lat="37.474956" lon="126.515247"></trkpt>
    <trkpt lat="37.475070" lon="126.515217"></trkpt>
    <trkpt lat="37.475492" lon="126.514496"></trkpt>
    <trkpt lat="37.475573" lon="126.514276"></trkpt>
    <trkpt lat="37.475858" lon="126.513803"></trkpt>
    <trkpt lat="37.475923" lon="126.513740"></trkpt>
    <trkpt lat="37.476002" lon="126.513644"></trkpt>
    <trkpt lat="37.476705" lon="126.512474"></trkpt>
    <trkpt lat="37.477016" lon="126.511937"></trkpt>
    <trkpt lat="37.477024" lon="126.511871"></trkpt>
    <trkpt lat="37.477016" lon="126.511857"></trkpt>
    <trkpt lat="37.477024" lon="126.511871"></trkpt>
    <trkpt lat="37.477071" lon="126.511773"></trkpt>
    <trkpt lat="37.477027" lon="126.511846"></trkpt>
    <trkpt lat="37.476999" lon="126.511824"></trkpt>
    <trkpt lat="37.477024" lon="126.511871"></trkpt>
    <trkpt lat="37.477144" lon="126.511618"></trkpt>
    <trkpt lat="37.477147" lon="126.511612"></trkpt>
    <trkpt lat="37.477176" lon="126.511609"></trkpt>
    <trkpt lat="37.477224" lon="126.511570"></trkpt>
    <trkpt lat="37.477409" lon="126.511215"></trkpt>
    <trkpt lat="37.477547" lon="126.511042"></trkpt>
    <trkpt lat="37.477635" lon="126.510917"></trkpt>
    <trkpt lat="37.478525" lon="126.509412"></trkpt>
    <trkpt lat="37.478778" lon="126.509027"></trkpt>
    <trkpt lat="37.478929" lon="126.508820"></trkpt>
    <trkpt lat="37.479215" lon="126.508438"></trkpt>
    <trkpt lat="37.479340" lon="126.508257"></trkpt>
    <trkpt lat="37.479614" lon="126.507976"></trkpt>
    <trkpt lat="37.480275" lon="126.507477"></trkpt>
    <trkpt lat="37.480446" lon="126.507368"></trkpt>
    <trkpt lat="37.480942" lon="126.507096"></trkpt>
    <trkpt lat="37.482136" lon="126.506465"></trkpt>
    <trkpt lat="37.482204" lon="126.506422"></trkpt>
    <trkpt lat="37.482360" lon="126.506298"></trkpt>
    <trkpt lat="37.482735" lon="126.506119"></trkpt>
    <trkpt lat="37.483204" lon="126.505877"></trkpt>
    <trkpt lat="37.483238" lon="126.505838"></trkpt>
    <trkpt lat="37.483245" lon="126.505799"></trkpt>
    <trkpt lat="37.483585" lon="126.505618"></trkpt>
    <trkpt lat="37.483604" lon="126.505629"></trkpt>
    <trkpt lat="37.483650" lon="126.505621"></trkpt>
    <trkpt lat="37.484302" lon="126.505278"></trkpt>
    <trkpt lat="37.484582" lon="126.505160"></trkpt>
    <trkpt lat="37.485644" lon="126.504620"></trkpt>
    <trkpt lat="37.485673" lon="126.504582"></trkpt>
    <trkpt lat="37.485683" lon="126.504543"></trkpt>
    <trkpt lat="37.485687" lon="126.504525"></trkpt>
    <trkpt lat="37.485673" lon="126.504463"></trkpt>
    <trkpt lat="37.485350" lon="126.503513"></trkpt>
    <trkpt lat="37.484961" lon="126.502368"></trkpt>
    <trkpt lat="37.484964" lon="126.502375"></trkpt>
    <trkpt lat="37.485113" lon="126.502298"></trkpt>
  </trkseg></trk>
</gpx>