<?xml version="1.0" encoding="UTF-8"?>
<gpx version="1.1" creator="kkumgil build_walk" xmlns="http://www.topografix.com/GPX/1/1">
<metadata><name>1구간 끝~2구간 답사 시작 (사용자 gpx.studio 작도 + 양끝 연결)</name></metadata>
<trk><name>gap_1to2</name><trkseg><trkpt lat="37.502034" lon="126.533755"/><trkpt lat="37.502141" lon="126.533714"/><trkpt lat="37.502168" lon="126.533744"/><trkpt lat="37.502190" lon="126.533766"/><trkpt lat="37.502034" lon="126.534079"/><trkpt lat="37.501923" lon="126.534313"/><trkpt lat="37.501540" lon="126.535110"/><trkpt lat="37.501156" lon="126.536202"/><trkpt lat="37.500753" lon="126.537467"/><trkpt lat="37.500645" lon="126.537841"/><trkpt lat="37.500546" lon="126.538213"/><trkpt lat="37.499809" lon="126.540757"/><trkpt lat="37.499280" lon="126.542482"/><trkpt lat="37.499105" lon="126.542985"/><trkpt lat="37.498913" lon="126.543533"/><trkpt lat="37.498742" lon="126.543971"/><trkpt lat="37.498496" lon="126.544558"/><trkpt lat="37.498101" lon="126.545433"/><trkpt lat="37.497800" lon="126.546011"/><trkpt lat="37.497719" lon="126.546182"/><trkpt lat="37.497418" lon="126.546755"/><trkpt lat="37.496772" lon="126.547848"/><trkpt lat="37.496050" lon="126.548838"/><trkpt lat="37.495739" lon="126.549394"/><trkpt lat="37.495421" lon="126.549872"/><trkpt lat="37.494875" lon="126.550617"/><trkpt lat="37.494651" lon="126.550766"/><trkpt lat="37.494616" lon="126.550780"/><trkpt lat="37.494651" lon="126.550766"/><trkpt lat="37.494875" lon="126.550617"/><trkpt lat="37.494497" lon="126.551153"/><trkpt lat="37.494292" lon="126.551467"/><trkpt lat="37.494089" lon="126.551950"/><trkpt lat="37.492764" lon="126.553797"/><trkpt lat="37.492729" lon="126.553759"/><trkpt lat="37.493230" lon="126.554269"/><trkpt lat="37.493697" lon="126.554742"/><trkpt lat="37.494846" lon="126.555906"/><trkpt lat="37.495247" lon="126.556335"/><trkpt lat="37.496049" lon="126.557192"/><trkpt lat="37.496651" lon="126.557834"/><trkpt lat="37.496852" lon="126.558049"/><trkpt lat="37.497253" lon="126.558477"/><trkpt lat="37.497503" lon="126.558745"/><trkpt lat="37.496735" lon="126.557715"/></trkseg></trk>
</gpx>
