<?xml version="1.0" encoding="UTF-8"?>
<gpx creator="https://gpx.studio" version="1.1" xmlns="http://www.topografix.com/GPX/1/1" xmlns:xsi="http://www.w3.org/2001/XMLSchema-instance" xsi:schemaLocation="http://www.topografix.com/GPX/1/1 http://www.topografix.com/GPX/1/1/gpx.xsd http://www.garmin.com/xmlschemas/GpxExtensions/v3 http://www.garmin.com/xmlschemas/GpxExtensionsv3.xsd http://www.garmin.com/xmlschemas/TrackPointExtension/v1 http://www.garmin.com/xmlschemas/TrackPointExtensionv1.xsd http://www.garmin.com/xmlschemas/PowerExtension/v1 http://www.garmin.com/xmlschemas/PowerExtensionv1.xsd http://www.topografix.com/GPX/gpx_style/0/2 http://www.topografix.com/GPX/gpx_style/0/2/gpx_style.xsd" xmlns:gpxtpx="http://www.garmin.com/xmlschemas/TrackPointExtension/v1" xmlns:gpxx="http://www.garmin.com/xmlschemas/GpxExtensions/v3" xmlns:gpxpx="http://www.garmin.com/xmlschemas/PowerExtension/v1" xmlns:gpx_style="http://www.topografix.com/GPX/gpx_style/0/2">
  <metadata>
    <name>New file 1</name>
    <author>
      <name>gpx.studio</name>
      <link href="https://gpx.studio"/>
    </author>
  </metadata>
  <trk>
    <name>New file 1</name>
    <trkseg>
      <trkpt lat="37.50221066253869" lon="126.5333966270025">
        <ele>19.222917152548018</ele>
      </trkpt>
      <trkpt lat="37.50201639644473" lon="126.5339077958637">
        <ele>23.313961264444515</ele>
      </trkpt>
      <trkpt lat="37.501822130350774" lon="126.5344189647249">
        <ele>23.018264321363873</ele>
      </trkpt>
      <trkpt lat="37.50162786425682" lon="126.5349301335861">
        <ele>22.19316756699891</ele>
      </trkpt>
      <trkpt lat="37.50143359816286" lon="126.5354413024473">
        <ele>21.246756515223517</ele>
      </trkpt>
      <trkpt lat="37.501239332068906" lon="126.53595247130849">
        <ele>19.79503788310103</ele>
      </trkpt>
      <trkpt lat="37.50104506597495" lon="126.5364636401697">
        <ele>18.1692962024917</ele>
      </trkpt>
      <trkpt lat="37.50085079988099" lon="126.5369748090309">
        <ele>15.75483474277234</ele>
      </trkpt>
      <trkpt lat="37.50065653378704" lon="126.53748597789209">
        <ele>12.415368772530176</ele>
      </trkpt>
      <trkpt lat="37.50046226769308" lon="126.53799714675328">
        <ele>10.847925748658438</ele>
      </trkpt>
      <trkpt lat="37.50038588730769" lon="126.53819812508061">
        <ele>10.296339140987037</ele>
      </trkpt>
      <trkpt lat="37.50020885971673" lon="126.53871913159571">
        <ele>9.671297308290377</ele>
      </trkpt>
      <trkpt lat="37.500031832125764" lon="126.53924013811081">
        <ele>9.769246854449756</ele>
      </trkpt>
      <trkpt lat="37.499854804534806" lon="126.53976114462591">
        <ele>10.039952850493137</ele>
      </trkpt>
      <trkpt lat="37.49967777694385" lon="126.54028215114101">
        <ele>10.786224599229172</ele>
      </trkpt>
      <trkpt lat="37.49950074935289" lon="126.54080315765611">
        <ele>12.303366228938103</ele>
      </trkpt>
      <trkpt lat="37.499323721761925" lon="126.54132416417121">
        <ele>15.856639885651077</ele>
      </trkpt>
      <trkpt lat="37.49914669417097" lon="126.54184517068632">
        <ele>22.599493874076714</ele>
      </trkpt>
      <trkpt lat="37.49896966658001" lon="126.54236617720142">
        <ele>23.088909381629282</ele>
      </trkpt>
      <trkpt lat="37.49879263898905" lon="126.54288718371652">
        <ele>25.02255495436546</ele>
      </trkpt>
      <trkpt lat="37.49861561139809" lon="126.54340819023162">
        <ele>20.866117965720903</ele>
      </trkpt>
      <trkpt lat="37.49843858380713" lon="126.54392919674672">
        <ele>21.918041546596214</ele>
      </trkpt>
      <trkpt lat="37.49826155621617" lon="126.5444502032618">
        <ele>19.843536655691974</ele>
      </trkpt>
      <trkpt lat="37.49808452862521" lon="126.5449712097769">
        <ele>16.139861486968865</ele>
      </trkpt>
      <trkpt lat="37.49800220749101" lon="126.54521348753156">
        <ele>14.837384828705783</ele>
      </trkpt>
      <trkpt lat="37.49773041154373" lon="126.54566499382365">
        <ele>11.954241293874123</ele>
      </trkpt>
      <trkpt lat="37.49745861559645" lon="126.54611650011574">
        <ele>10.69966290507</ele>
      </trkpt>
      <trkpt lat="37.497186819649166" lon="126.54656800640784">
        <ele>10.549744142204226</ele>
      </trkpt>
      <trkpt lat="37.49691502370188" lon="126.54701951269992">
        <ele>10.374181412626056</ele>
      </trkpt>
      <trkpt lat="37.4966432277546" lon="126.54747101899201">
        <ele>10.481592940633789</ele>
      </trkpt>
      <trkpt lat="37.49637143180732" lon="126.54792252528411">
        <ele>9.439943256195358</ele>
      </trkpt>
      <trkpt lat="37.496099635860034" lon="126.5483740315762">
        <ele>9.21870067506903</ele>
      </trkpt>
      <trkpt lat="37.49582783991276" lon="126.5488255378683">
        <ele>11.883588081225753</ele>
      </trkpt>
      <trkpt lat="37.49555604396547" lon="126.54927704416039">
        <ele>9.543951187515631</ele>
      </trkpt>
      <trkpt lat="37.49552720582126" lon="126.54932494996507">
        <ele>9.342495351179128</ele>
      </trkpt>
      <trkpt lat="37.49528319723219" lon="126.54980099520048">
        <ele>7.9627447857157465</ele>
      </trkpt>
      <trkpt lat="37.495107590597016" lon="126.55014359257501">
        <ele>7.5</ele>
      </trkpt>
      <trkpt lat="37.494789632833346" lon="126.5505443422417">
        <ele>8</ele>
      </trkpt>
      <trkpt lat="37.4947097164802" lon="126.55064506773277">
        <ele>7.86827549879672</ele>
      </trkpt>
      <trkpt lat="37.49444481356648" lon="126.55110302193756">
        <ele>7.8003209551097825</ele>
      </trkpt>
      <trkpt lat="37.49417991065277" lon="126.55156097614234">
        <ele>8.055567382436209</ele>
      </trkpt>
      <trkpt lat="37.49416447813729" lon="126.5515876552953">
        <ele>8.075883362811943</ele>
      </trkpt>
      <trkpt lat="37.49387602047898" lon="126.55202240978434">
        <ele>7.710508861928247</ele>
      </trkpt>
      <trkpt lat="37.493587562820665" lon="126.5524571642734">
        <ele>7.875310530893326</ele>
      </trkpt>
      <trkpt lat="37.49329910516235" lon="126.55289191876246">
        <ele>8</ele>
      </trkpt>
      <trkpt lat="37.493010647504036" lon="126.55332667325152">
        <ele>6.350090836873278</ele>
      </trkpt>
      <trkpt lat="37.49275347123182" lon="126.55371428139989">
        <ele>6.723004642757587</ele>
      </trkpt>
      <trkpt lat="37.49311011170521" lon="126.55405945020159">
        <ele>9.333572644239029</ele>
      </trkpt>
      <trkpt lat="37.4934667521786" lon="126.55440461900328">
        <ele>10.163801230054052</ele>
      </trkpt>
      <trkpt lat="37.49382339265198" lon="126.55474978780498">
        <ele>10.868714728372154</ele>
      </trkpt>
      <trkpt lat="37.49418003312537" lon="126.55509495660667">
        <ele>11.44173323421551</ele>
      </trkpt>
      <trkpt lat="37.49424552732047" lon="126.55515834412023">
        <ele>11.857886089795148</ele>
      </trkpt>
      <trkpt lat="37.4945887673444" lon="126.55552447022212">
        <ele>13.479487487012651</ele>
      </trkpt>
      <trkpt lat="37.494932007368334" lon="126.555890596324">
        <ele>14.369618176710002</ele>
      </trkpt>
      <trkpt lat="37.495275247392264" lon="126.5562567224259">
        <ele>16.42387318549276</ele>
      </trkpt>
      <trkpt lat="37.4956184874162" lon="126.5566228485278">
        <ele>17.04844702445997</ele>
      </trkpt>
      <trkpt lat="37.49596172744013" lon="126.55698897462969">
        <ele>18.39595034066588</ele>
      </trkpt>
      <trkpt lat="37.49630496746406" lon="126.55735510073157">
        <ele>19.520864157021965</ele>
      </trkpt>
      <trkpt lat="37.49664820748799" lon="126.55772122683346">
        <ele>21.659175738134657</ele>
      </trkpt>
      <trkpt lat="37.496991447511924" lon="126.55808735293536">
        <ele>26.105744264310562</ele>
      </trkpt>
      <trkpt lat="37.497334687535854" lon="126.55845347903725">
        <ele>32.11486821590138</ele>
      </trkpt>
      <trkpt lat="37.49754626489349" lon="126.55867916365384">
        <ele>33.51175976415408</ele>
      </trkpt>
      <trkpt lat="37.49746046345017" lon="126.5588063951102">
        <ele>38.938716535554306</ele>
      </trkpt>
    </trkseg>
  </trk>
</gpx>
